StationName,City,State,FullAddress,location,latitude,longitude
"Secretariat, Amaravati - APPCB",Amaravati,Andhra Pradesh,"Amaravati, Andhra Pradesh, India","Amaravati, Thullur, Guntur, Andhra Pradesh, India",16.5096679,80.5184535
"Anand Kala Kshetram, Rajamahendravaram - APPCB",Rajamahendravaram,Andhra Pradesh,"Rajamahendravaram, Andhra Pradesh, India","Rajamahendravaram, Rajahmundry (Urban), East Godavari, Andhra Pradesh, 533100, India",17.0050454,81.7804732
"Tirumala, Tirupati - APPCB",Tirupati,Andhra Pradesh,"Tirupati, Andhra Pradesh, India","Tirupati, Tirupati (Urban), Tirupati, Andhra Pradesh, 517500, India",13.6316368,79.4231711
"PWD Grounds, Vijayawada - APPCB",Vijayawada,Andhra Pradesh,"Vijayawada, Andhra Pradesh, India","Vijayawada, NTR, Andhra Pradesh, 520001, India",16.5115306,80.6160469
"GVM Corporation, Visakhapatnam - APPCB",Visakhapatnam,Andhra Pradesh,"Visakhapatnam, Andhra Pradesh, India","Visakhapatnam, Visakhapatnam (Urban), Visakhapatnam, Andhra Pradesh, 530001, India",17.6935526,83.2921297
"Railway Colony, Guwahati - APCB",Guwahati,Assam,"Guwahati, Assam, India","Guwahati, Kamrup Metropolitan, Assam, 781015, India",26.1805978,91.753943
"Collectorate, Gaya - BSPCB",Gaya,Bihar,"Gaya, Bihar, India","Gaya, Bihar, India",24.6793889,85.0115833
"SFTI Kusdihra, Gaya - BSPCB",Gaya,Bihar,"Gaya, Bihar, India","Gaya, Bihar, India",24.6793889,85.0115833
"Industrial Area, Hajipur - BSPCB",Hajipur,Bihar,"Hajipur, Bihar, India","Hajipur, Vaishali, Bihar, 844101, India",25.6905702,85.2090351
"Muzaffarpur Collectorate, Muzaffarpur - BSPCB",Muzaffarpur,Bihar,"Muzaffarpur, Bihar, India","Muzaffarpur, Bihar, India",26.1482548,85.3316097
"DRM Office Danapur, Patna - BSPCB",Patna,Bihar,"Patna, Bihar, India","Patna, Patna Rural, Patna, Bihar, 800001, India",25.6093239,85.1235252
"Govt. High School Shikarpur, Patna - BSPCB",Patna,Bihar,"Patna, Bihar, India","Patna, Patna Rural, Patna, Bihar, 800001, India",25.6093239,85.1235252
"IGSC Planetarium Complex, Patna - BSPCB",Patna,Bihar,"Patna, Bihar, India","Patna, Patna Rural, Patna, Bihar, 800001, India",25.6093239,85.1235252
"Muradpur, Patna - BSPCB",Patna,Bihar,"Patna, Bihar, India","Patna, Patna Rural, Patna, Bihar, 800001, India",25.6093239,85.1235252
"Rajbansi Nagar, Patna - BSPCB",Patna,Bihar,"Patna, Bihar, India","Patna, Patna Rural, Patna, Bihar, 800001, India",25.6093239,85.1235252
"Samanpura, Patna - BSPCB",Patna,Bihar,"Patna, Bihar, India","Patna, Patna Rural, Patna, Bihar, 800001, India",25.6093239,85.1235252
"Sector-25, Chandigarh - CPCC",Chandigarh,Chandigarh,"Chandigarh, Chandigarh, India","Chandigarh, India",30.7334421,76.7797143
"Alipur, Delhi - DPCC",Delhi,Delhi,"Delhi, Delhi, India","Delhi, Kotwali Tehsil, Central Delhi, Delhi, 110006, India",28.6517178,77.2219388
"Anand Vihar, Delhi - DPCC",Delhi,Delhi,"Delhi, Delhi, India","Delhi, Kotwali Tehsil, Central Delhi, Delhi, 110006, India",28.6517178,77.2219388
"Ashok Vihar, Delhi - DPCC",Delhi,Delhi,"Delhi, Delhi, India","Delhi, Kotwali Tehsil, Central Delhi, Delhi, 110006, India",28.6517178,77.2219388
"Aya Nagar, Delhi - IMD",Delhi,Delhi,"Delhi, Delhi, India","Delhi, Kotwali Tehsil, Central Delhi, Delhi, 110006, India",28.6517178,77.2219388
"Bawana, Delhi - DPCC",Delhi,Delhi,"Delhi, Delhi, India","Delhi, Kotwali Tehsil, Central Delhi, Delhi, 110006, India",28.6517178,77.2219388
"Burari Crossing, Delhi - IMD",Delhi,Delhi,"Delhi, Delhi, India","Delhi, Kotwali Tehsil, Central Delhi, Delhi, 110006, India",28.6517178,77.2219388
"CRRI Mathura Road, Delhi - IMD",Delhi,Delhi,"Delhi, Delhi, India","Delhi, Kotwali Tehsil, Central Delhi, Delhi, 110006, India",28.6517178,77.2219388
"DTU, Delhi - CPCB",Delhi,Delhi,"Delhi, Delhi, India","Delhi, Kotwali Tehsil, Central Delhi, Delhi, 110006, India",28.6517178,77.2219388
"Dr. Karni Singh Shooting Range, Delhi - DPCC",Delhi,Delhi,"Delhi, Delhi, India","Delhi, Kotwali Tehsil, Central Delhi, Delhi, 110006, India",28.6517178,77.2219388
"Dwarka-Sector 8, Delhi - DPCC",Delhi,Delhi,"Delhi, Delhi, India","Delhi, Kotwali Tehsil, Central Delhi, Delhi, 110006, India",28.6517178,77.2219388
"East Arjun Nagar, Delhi - CPCB",Delhi,Delhi,"Delhi, Delhi, India","Delhi, Kotwali Tehsil, Central Delhi, Delhi, 110006, India",28.6517178,77.2219388
"IGI Airport (T3), Delhi - IMD",Delhi,Delhi,"Delhi, Delhi, India","Delhi, Kotwali Tehsil, Central Delhi, Delhi, 110006, India",28.6517178,77.2219388
"IHBAS, Dilshad Garden, Delhi - CPCB",Delhi,Delhi,"Delhi, Delhi, India","Delhi, Kotwali Tehsil, Central Delhi, Delhi, 110006, India",28.6517178,77.2219388
"ITO, Delhi - CPCB",Delhi,Delhi,"Delhi, Delhi, India","Delhi, Kotwali Tehsil, Central Delhi, Delhi, 110006, India",28.6517178,77.2219388
"Jahangirpuri, Delhi - DPCC",Delhi,Delhi,"Delhi, Delhi, India","Delhi, Kotwali Tehsil, Central Delhi, Delhi, 110006, India",28.6517178,77.2219388
"Jawaharlal Nehru Stadium, Delhi - DPCC",Delhi,Delhi,"Delhi, Delhi, India","Delhi, Kotwali Tehsil, Central Delhi, Delhi, 110006, India",28.6517178,77.2219388
"Lodhi Road, Delhi - IMD",Delhi,Delhi,"Delhi, Delhi, India","Delhi, Kotwali Tehsil, Central Delhi, Delhi, 110006, India",28.6517178,77.2219388
"Major Dhyan Chand National Stadium, Delhi - DPCC",Delhi,Delhi,"Delhi, Delhi, India","Delhi, Kotwali Tehsil, Central Delhi, Delhi, 110006, India",28.6517178,77.2219388
"Mandir Marg, Delhi - DPCC",Delhi,Delhi,"Delhi, Delhi, India","Delhi, Kotwali Tehsil, Central Delhi, Delhi, 110006, India",28.6517178,77.2219388
"Mundka, Delhi - DPCC",Delhi,Delhi,"Delhi, Delhi, India","Delhi, Kotwali Tehsil, Central Delhi, Delhi, 110006, India",28.6517178,77.2219388
"NSIT Dwarka, Delhi - CPCB",Delhi,Delhi,"Delhi, Delhi, India","Delhi, Kotwali Tehsil, Central Delhi, Delhi, 110006, India",28.6517178,77.2219388
"Najafgarh, Delhi - DPCC",Delhi,Delhi,"Delhi, Delhi, India","Delhi, Kotwali Tehsil, Central Delhi, Delhi, 110006, India",28.6517178,77.2219388
"Narela, Delhi - DPCC",Delhi,Delhi,"Delhi, Delhi, India","Delhi, Kotwali Tehsil, Central Delhi, Delhi, 110006, India",28.6517178,77.2219388
"Nehru Nagar, Delhi - DPCC",Delhi,Delhi,"Delhi, Delhi, India","Delhi, Kotwali Tehsil, Central Delhi, Delhi, 110006, India",28.6517178,77.2219388
"North Campus, DU, Delhi - IMD",Delhi,Delhi,"Delhi, Delhi, India","Delhi, Kotwali Tehsil, Central Delhi, Delhi, 110006, India",28.6517178,77.2219388
"Okhla Phase-2, Delhi - DPCC",Delhi,Delhi,"Delhi, Delhi, India","Delhi, Kotwali Tehsil, Central Delhi, Delhi, 110006, India",28.6517178,77.2219388
"Patparganj, Delhi - DPCC",Delhi,Delhi,"Delhi, Delhi, India","Delhi, Kotwali Tehsil, Central Delhi, Delhi, 110006, India",28.6517178,77.2219388
"Punjabi Bagh, Delhi - DPCC",Delhi,Delhi,"Delhi, Delhi, India","Delhi, Kotwali Tehsil, Central Delhi, Delhi, 110006, India",28.6517178,77.2219388
"Pusa, Delhi - DPCC",Delhi,Delhi,"Delhi, Delhi, India","Delhi, Kotwali Tehsil, Central Delhi, Delhi, 110006, India",28.6517178,77.2219388
"Pusa, Delhi - IMD",Delhi,Delhi,"Delhi, Delhi, India","Delhi, Kotwali Tehsil, Central Delhi, Delhi, 110006, India",28.6517178,77.2219388
"R K Puram, Delhi - DPCC",Delhi,Delhi,"Delhi, Delhi, India","Delhi, Kotwali Tehsil, Central Delhi, Delhi, 110006, India",28.6517178,77.2219388
"Rohini, Delhi - DPCC",Delhi,Delhi,"Delhi, Delhi, India","Delhi, Kotwali Tehsil, Central Delhi, Delhi, 110006, India",28.6517178,77.2219388
"Shadipur, Delhi - CPCB",Delhi,Delhi,"Delhi, Delhi, India","Delhi, Kotwali Tehsil, Central Delhi, Delhi, 110006, India",28.6517178,77.2219388
"Sirifort, Delhi - CPCB",Delhi,Delhi,"Delhi, Delhi, India","Delhi, Kotwali Tehsil, Central Delhi, Delhi, 110006, India",28.6517178,77.2219388
"Sonia Vihar, Delhi - DPCC",Delhi,Delhi,"Delhi, Delhi, India","Delhi, Kotwali Tehsil, Central Delhi, Delhi, 110006, India",28.6517178,77.2219388
"Sri Aurobindo Marg, Delhi - DPCC",Delhi,Delhi,"Delhi, Delhi, India","Delhi, Kotwali Tehsil, Central Delhi, Delhi, 110006, India",28.6517178,77.2219388
"Vivek Vihar, Delhi - DPCC",Delhi,Delhi,"Delhi, Delhi, India","Delhi, Kotwali Tehsil, Central Delhi, Delhi, 110006, India",28.6517178,77.2219388
"Wazirpur, Delhi - DPCC",Delhi,Delhi,"Delhi, Delhi, India","Delhi, Kotwali Tehsil, Central Delhi, Delhi, 110006, India",28.6517178,77.2219388
"Maninagar, Ahmedabad - GPCB",Ahmedabad,Gujarat,"Ahmedabad, Gujarat, India","Ahmedabad, Gujarat, 380001, India",23.0215374,72.5800568
"GIDC, Ankleshwar - GPCB",Ankleshwar,Gujarat,"Ankleshwar, Gujarat, India","Ankleshwar, Ankleshwar Taluka, Bharuch, Gujarat, India",21.6293206,72.9945103
"Sector-10, Gandhinagar - GPCB",Gandhinagar,Gujarat,"Gandhinagar, Gujarat, India","Gandhinagar, Gandhinagar Taluka, Gandhinagar, Gujarat, India",23.2232877,72.6492267
"GIDC, Nandesari - Nandesari Ind. Association",Nandesari,Gujarat,"Nandesari, Gujarat, India","Nandesari, NH48, Vadodara Rural Taluka, Vadodara, Gujarat, 391350, India",22.4178037,73.0949186
"Phase-1 GIDC, Vapi - GPCB",Vapi,Gujarat,"Vapi, Gujarat, India","Vapi, Daman Road, Vapi, Vapi Taluka, Valsad, Gujarat, 396191, India",20.3735482,72.9084376
"Phase-4 GIDC, Vatva - GPCB",Vatva,Gujarat,"Vatva, Gujarat, India","Vatva, Vatva phase -2 road, Vatva Gidc, Vatva Taluka, Ahmedabad, Gujarat, 382445, India",22.9589978,72.6297981
"Patti Mehar, Ambala - HSPCB",Ambala,Haryana,"Ambala, Haryana, India","Ambala, Ambala Cantt, Ambala, Haryana, 134002, India",30.3843674,76.770421
"Arya Nagar, Bahadurgarh - HSPCB",Bahadurgarh,Haryana,"Bahadurgarh, Haryana, India","Bahadurgarh, Jhajjar, Haryana, India",28.6609648,76.8346765
"Nathu Colony, Ballabgarh - HSPCB",Ballabgarh,Haryana,"Ballabgarh, Haryana, India","Ballabgarh, Faridabad, Haryana, India",28.2940728,77.3592238
"H.B. Colony, Bhiwani - HSPCB",Bhiwani,Haryana,"Bhiwani, Haryana, India","Bhiwani, Haryana, 125021, India",28.7931703,76.1391283
"Municipal Corporation Office, Dharuhera - HSPCB",Dharuhera,Haryana,"Dharuhera, Haryana, India","Dharuhera, Rewari, Haryana, 123106, India",28.2055216,76.7953099
"New Industrial Town, Faridabad - HSPCB",Faridabad,Haryana,"Faridabad, Haryana, India","Faridabad, Haryana, 121001, India",28.4031478,77.3105561
"Sector 11, Faridabad - HSPCB",Faridabad,Haryana,"Faridabad, Haryana, India","Faridabad, Haryana, 121001, India",28.4031478,77.3105561
"Sector 30, Faridabad - HSPCB",Faridabad,Haryana,"Faridabad, Haryana, India","Faridabad, Haryana, 121001, India",28.4031478,77.3105561
"Sector- 16A, Faridabad - HSPCB",Faridabad,Haryana,"Faridabad, Haryana, India","Faridabad, Haryana, 121001, India",28.4031478,77.3105561
"Huda Sector, Fatehabad - HSPCB",Fatehabad,Haryana,"Fatehabad, Haryana, India","Fatehabad, Haryana, India",29.5359209,75.5752901
"NISE Gwal Pahari, Gurugram - IMD",Gurugram,Haryana,"Gurugram, Haryana, India","Gurugram, Haryana, India",28.4646148,77.0299194
"Sector-51, Gurugram - HSPCB",Gurugram,Haryana,"Gurugram, Haryana, India","Gurugram, Haryana, India",28.4646148,77.0299194
"Teri Gram, Gurugram - HSPCB",Gurugram,Haryana,"Gurugram, Haryana, India","Gurugram, Haryana, India",28.4646148,77.0299194
"Vikas Sadan, Gurugram - HSPCB",Gurugram,Haryana,"Gurugram, Haryana, India","Gurugram, Haryana, India",28.4646148,77.0299194
"Urban Estate-II, Hisar - HSPCB",Hisar,Haryana,"Hisar, Haryana, India","Hisar, Haryana, India",29.2396596,75.8174505
"Police Lines, Jind - HSPCB",Jind,Haryana,"Jind, Haryana, India","Jind, Haryana, 126100, India",29.3152073,76.314082
"Rishi Nagar, Kaithal - HSPCB",Kaithal,Haryana,"Kaithal, Haryana, India","Kaithal, Haryana, 132027, India",29.7996588,76.3989903
"Sector-12, Karnal - HSPCB",Karnal,Haryana,"Karnal, Haryana, India","Karnal, Haryana, India",29.7255766,76.9106924
"Sector-7, Kurukshetra - HSPCB",Kurukshetra,Haryana,"Kurukshetra, Haryana, India","Kurukshetra, Thanesar, Kurukshetra, Haryana, 132118, India",29.9693747,76.8482787
"General Hospital, Mandikhera - HSPCB",Mandikhera,Haryana,"Mandikhera, Haryana, India","Mandikhera, Ferozepur Jhirka, Nuh, Haryana, 122008, India",27.897075,76.9922014
"Sector-2 IMT, Manesar - HSPCB",Manesar,Haryana,"Manesar, Haryana, India","Manesar, Gurugram, Haryana, India",28.3247096,76.9263787
"Shastri Nagar, Narnaul - HSPCB",Narnaul,Haryana,"Narnaul, Haryana, India","Narnaul, Mahendragarh, Haryana, 123001, India",28.0438456,76.1062015
"Shyam Nagar, Palwal - HSPCB",Palwal,Haryana,"Palwal, Haryana, India","Palwal, Haryana, India",28.0599426,77.3223422
"Sector-6, Panchkula - HSPCB",Panchkula,Haryana,"Panchkula, Haryana, India","Panchkula, Haryana, 134109, India",30.6975401,76.8551066
"Sector-18, Panipat - HSPCB",Panipat,Haryana,"Panipat, Haryana, India","Panipat, Haryana, 132100, India",29.3912753,76.9771675
"MD University, Rohtak - HSPCB",Rohtak,Haryana,"Rohtak, Haryana, India","Rohtak, Haryana, 124001, India",28.9010899,76.5801935
"F-Block, Sirsa - HSPCB",Sirsa,Haryana,"Sirsa, Haryana, India","Sirsa, Haryana, India",29.6063041,74.9036568
"Murthal, Sonipat - HSPCB",Sonipat,Haryana,"Sonipat, Haryana, India","Sonipat, Haryana, 131001, India",28.9953758,77.0233627
"Gobind Pura, Yamuna Nagar - HSPCB",Yamuna Nagar,Haryana,"Yamuna Nagar, Haryana, India","MLGH Trauma Centre Yamuna Nagar Blood Bank, Gobindpuri Road, Yamunanagar, Jagadhri, Yamunanagar, Haryana, 135001, India",30.1389108,77.301064
"Tata Stadium, Jorapokhar - JSPCB",Jorapokhar,Jharkhand,"Jorapokhar, Jharkhand, India","Jorapokhar, Jharia, Jharia-Cum-Jorapokhar-Cum-Sindri, Dhanbad, Jharkhand, 828111, India",23.7167069,86.4110166
"Vidayagiri, Bagalkot - KSPCB",Bagalkot,Karnataka,"Bagalkot, Karnataka, India","Bagalkot, Station Road, Bagalkote, Bagalakote taluk, Bagalkote, Karnataka, 587103, India",16.1793224,75.6999315
"BTM Layout, Bengaluru - CPCB",Bengaluru,Karnataka,"Bengaluru, Karnataka, India","Bengaluru, Bangalore North, Bengaluru Urban, Karnataka, India",12.9881567,77.6226
"BWSSB Kadabesanahalli, Bengaluru - CPCB",Bengaluru,Karnataka,"Bengaluru, Karnataka, India","Bengaluru, Bangalore North, Bengaluru Urban, Karnataka, India",12.9881567,77.6226
"Bapuji Nagar, Bengaluru - KSPCB",Bengaluru,Karnataka,"Bengaluru, Karnataka, India","Bengaluru, Bangalore North, Bengaluru Urban, Karnataka, India",12.9881567,77.6226
"City Railway Station, Bengaluru - KSPCB",Bengaluru,Karnataka,"Bengaluru, Karnataka, India","Bengaluru, Bangalore North, Bengaluru Urban, Karnataka, India",12.9881567,77.6226
"Hebbal, Bengaluru - KSPCB",Bengaluru,Karnataka,"Bengaluru, Karnataka, India","Bengaluru, Bangalore North, Bengaluru Urban, Karnataka, India",12.9881567,77.6226
"Hombegowda Nagar, Bengaluru - KSPCB",Bengaluru,Karnataka,"Bengaluru, Karnataka, India","Bengaluru, Bangalore North, Bengaluru Urban, Karnataka, India",12.9881567,77.6226
"Jayanagar 5th Block, Bengaluru - KSPCB",Bengaluru,Karnataka,"Bengaluru, Karnataka, India","Bengaluru, Bangalore North, Bengaluru Urban, Karnataka, India",12.9881567,77.6226
"Peenya, Bengaluru - CPCB",Bengaluru,Karnataka,"Bengaluru, Karnataka, India","Bengaluru, Bangalore North, Bengaluru Urban, Karnataka, India",12.9881567,77.6226
"Sanegurava Halli, Bengaluru - KSPCB",Bengaluru,Karnataka,"Bengaluru, Karnataka, India","Bengaluru, Bangalore North, Bengaluru Urban, Karnataka, India",12.9881567,77.6226
"Silk Board, Bengaluru - KSPCB",Bengaluru,Karnataka,"Bengaluru, Karnataka, India","Bengaluru, Bangalore North, Bengaluru Urban, Karnataka, India",12.9881567,77.6226
"Urban, Chamarajanagar - KSPCB",Chamarajanagar,Karnataka,"Chamarajanagar, Karnataka, India","Chamarajanagar, Karnataka, India",11.95442,77.1069086
"Chikkaballapur Rural, Chikkaballapur - KSPCB",Chikkaballapur,Karnataka,"Chikkaballapur, Karnataka, India","Nelamangala - Chikkaballapur Highway, Nelamangala, Nelamangala taluk, Bengaluru Rural, Karnataka, 562123, India",13.0993764,77.388729
"Kalyana Nagara, Chikkamagaluru - KSPCB",Chikkamagaluru,Karnataka,"Chikkamagaluru, Karnataka, India","Chikkamagaluru, Karnataka, India",13.4058699,75.638758
"Deshpande Nagar, Hubballi - KSPCB",Hubballi,Karnataka,"Hubballi, Karnataka, India","Hubballi, Hubballi Urban Taluku, Dharwad, Karnataka, 580020, India",15.3518378,75.1379848
"Lal Bahadur Shastri Nagar, Kalaburagi - KSPCB",Kalaburagi,Karnataka,"Kalaburagi, Karnataka, India","Kalaburagi, Karnataka, India",17.2408957,76.7697439
"Hebbal 1st Stage, Mysuru - KSPCB",Mysuru,Karnataka,"Mysuru, Karnataka, India","Mysuru, Mysuru taluk, Mysuru, Karnataka, 570001, India",12.3041464,76.6529521
"Vijay Nagar, Ramanagara - KSPCB",Ramanagara,Karnataka,"Ramanagara, Karnataka, India","Ramanagara, Karnataka, India",12.720006,77.3184199
"Ibrahimpur, Vijayapura - KSPCB",Vijayapura,Karnataka,"Vijayapura, Karnataka, India","Vijayapura, Karnataka, India",16.814415,75.8933856
"Collector Office, Yadgir - KSPCB",Yadgir,Karnataka,"Yadgir, Karnataka, India","Yadgir, Karnataka, India",16.5744123,76.9254434
"Udyogamandal, Eloor - Kerala PCB",Eloor,Kerala,"Eloor, Kerala, India","Eloor, Paravur, Ernakulam, Kerala, 683501, India",10.0669964,76.2989276
"Kacheripady, Ernakulam - Kerala PCB",Ernakulam,Kerala,"Ernakulam, Kerala, India","Ernakulam, Kanayannur, Ernakulam, Kerala, 682035, India",9.9837257,76.2740001
"Thavakkara, Kannur - Kerala PCB",Kannur,Kerala,"Kannur, Kerala, India","Kannur, Kerala, India",11.8763836,75.3737973
"Vyttila, Kochi - Kerala PCB",Kochi,Kerala,"Kochi, Kerala, India","Kochi, Ernakulam, Kerala, 682001, India",9.9679032,76.2444378
"Polayathode, Kollam - Kerala PCB",Kollam,Kerala,"Kollam, Kerala, India","Kollam, Kerala, 691001, India",8.8870815,76.5907017
"Palayam, Kozhikode - Kerala PCB",Kozhikode,Kerala,"Kozhikode, Kerala, India","Kozhikode, Kerala, 673001, India",11.2450558,75.7754716
"Kariavattom, Thiruvananthapuram - Kerala PCB",Thiruvananthapuram,Kerala,"Thiruvananthapuram, Kerala, India","Thiruvananthapuram, Kerala, 695001, India",8.4882267,76.947551
"Plammoodu, Thiruvananthapuram - Kerala PCB",Thiruvananthapuram,Kerala,"Thiruvananthapuram, Kerala, India","Thiruvananthapuram, Kerala, 695001, India",8.4882267,76.947551
"T T Nagar, Bhopal - MPPCB",Bhopal,Madhya Pradesh,"Bhopal, Madhya Pradesh, India","Bhopal, Huzur Tahsil, Bhopal, Madhya Pradesh, 462001, India",23.2584857,77.401989
"Shrivastav Colony, Damoh - MPPCB",Damoh,Madhya Pradesh,"Damoh, Madhya Pradesh, India","Damoh, Madhya Pradesh, India",23.7981005,79.5419356
"Bhopal Chauraha, Dewas - MPPCB",Dewas,Madhya Pradesh,"Dewas, Madhya Pradesh, India","Dewas, Madhya Pradesh, India",22.8057498,76.2940408
"City Center, Gwalior - MPPCB",Gwalior,Madhya Pradesh,"Gwalior, Madhya Pradesh, India","Gwalior, Gird Tahsil, Gwalior, Madhya Pradesh, 474001, India",26.2037247,78.1573628
"Phool Bagh, Gwalior - Mondelez Ind. Food",Gwalior,Madhya Pradesh,"Gwalior, Madhya Pradesh, India","Gwalior, Gird Tahsil, Gwalior, Madhya Pradesh, 474001, India",26.2037247,78.1573628
"Chhoti Gwaltoli, Indore - MPPCB",Indore,Madhya Pradesh,"Indore, Madhya Pradesh, India","Indore, Juni Indore Tahsil, Indore, Madhya Pradesh, 452001, India",22.7203616,75.8681996
"Marhatal, Jabalpur - MPPCB",Jabalpur,Madhya Pradesh,"Jabalpur, Madhya Pradesh, India","Jabalpur, Ranjhi Tahsil, Jabalpur, Madhya Pradesh, India",23.1701522,79.9324505
"Gole Bazar, Katni - MPPCB",Katni,Madhya Pradesh,"Katni, Madhya Pradesh, India","Katni, Madhya Pradesh, India",23.7176393,80.2610181
"Sahilara, Maihar - KJS Cements",Maihar,Madhya Pradesh,"Maihar, Madhya Pradesh, India","Maihar, Maihar Tahsil, Maihar, Madhya Pradesh, India",24.260444,80.7592749
"Sector-D Industrial Area, Mandideep - MPPCB",Mandideep,Madhya Pradesh,"Mandideep, Madhya Pradesh, India","Mandideep, NH46, Mandideep, Goharganj Tahsil, Raisen, Madhya Pradesh, 462046, India",23.093838,77.5114296
"Sector-2 Industrial Area, Pithampur - MPPCB",Pithampur,Madhya Pradesh,"Pithampur, Madhya Pradesh, India","Pithampur, Pithampur Tahsil, Dhar, Madhya Pradesh, 454775, India",22.6105576,75.6790283
"Shasthri Nagar, Ratlam - IPCA Lab",Ratlam,Madhya Pradesh,"Ratlam, Madhya Pradesh, India","Ratlam, Madhya Pradesh, India",23.50222,74.9551534
"Deen Dayal Nagar, Sagar - MPPCB",Sagar,Madhya Pradesh,"Sagar, Madhya Pradesh, India","Sagar, Madhya Pradesh, India",23.8083076,78.758254
"Bandhavgar Colony, Satna - Birla Cement",Satna,Madhya Pradesh,"Satna, Madhya Pradesh, India","Satna, Madhya Pradesh, India",24.6954445,80.7770348
"Vindhyachal STPS, Singrauli - MPPCB",Singrauli,Madhya Pradesh,"Singrauli, Madhya Pradesh, India","Singrauli, Madhya Pradesh, India",24.2431343,82.3827672
"Mahakaleshwar Temple, Ujjain - MPPCB",Ujjain,Madhya Pradesh,"Ujjain, Madhya Pradesh, India","Ujjain, Ujjain NagarTahsil, Ujjain, Madhya Pradesh, 456001, India",23.1885131,75.7716562
"More Chowk Waluj, Aurangabad - MPCB",Aurangabad,Maharashtra,"Aurangabad, Maharashtra, India","Chhatrapati Sambhaji Nagar, Chhatrapati Sambhajinagar, Maharashtra, 431002, India",19.877263,75.3390241
"Chandrapur, Chandrapur - MPCB",Chandrapur,Maharashtra,"Chandrapur, Maharashtra, India","Chandrapur, Maharashtra, India",20.0967555,79.5045475
"MIDC Khutala, Chandrapur - MPCB",Chandrapur,Maharashtra,"Chandrapur, Maharashtra, India","Chandrapur, Maharashtra, India",20.0967555,79.5045475
"Khadakpada, Kalyan - MPCB",Kalyan,Maharashtra,"Kalyan, Maharashtra, India","Kalyan, Kalyan-Dombivli, Kalyan Taluka, Thane, Maharashtra, India",19.2396742,73.1366482
"Bandra, Mumbai - MPCB",Mumbai,Maharashtra,"Mumbai, Maharashtra, India","Mumbai Suburban, Maharashtra, India",19.054999,72.8692035
"Borivali East, Mumbai - MPCB",Mumbai,Maharashtra,"Mumbai, Maharashtra, India","Mumbai Suburban, Maharashtra, India",19.054999,72.8692035
"Chhatrapati Shivaji Intl. Airport (T2), Mumbai - MPCB",Mumbai,Maharashtra,"Mumbai, Maharashtra, India","Mumbai Suburban, Maharashtra, India",19.054999,72.8692035
"Colaba, Mumbai - MPCB",Mumbai,Maharashtra,"Mumbai, Maharashtra, India","Mumbai Suburban, Maharashtra, India",19.054999,72.8692035
"Kurla, Mumbai - MPCB",Mumbai,Maharashtra,"Mumbai, Maharashtra, India","Mumbai Suburban, Maharashtra, India",19.054999,72.8692035
"Powai, Mumbai - MPCB",Mumbai,Maharashtra,"Mumbai, Maharashtra, India","Mumbai Suburban, Maharashtra, India",19.054999,72.8692035
"Sion, Mumbai - MPCB",Mumbai,Maharashtra,"Mumbai, Maharashtra, India","Mumbai Suburban, Maharashtra, India",19.054999,72.8692035
"Vasai West, Mumbai - MPCB",Mumbai,Maharashtra,"Mumbai, Maharashtra, India","Mumbai Suburban, Maharashtra, India",19.054999,72.8692035
"Vile Parle West, Mumbai - MPCB",Mumbai,Maharashtra,"Mumbai, Maharashtra, India","Mumbai Suburban, Maharashtra, India",19.054999,72.8692035
"Worli, Mumbai - MPCB",Mumbai,Maharashtra,"Mumbai, Maharashtra, India","Mumbai Suburban, Maharashtra, India",19.054999,72.8692035
"Opp GPO Civil Lines, Nagpur - MPCB",Nagpur,Maharashtra,"Nagpur, Maharashtra, India","Nagpur City, Nagpur Urban Taluka, Nagpur, Maharashtra, India",21.1498134,79.0820556
"Gangapur Road, Nashik - MPCB",Nashik,Maharashtra,"Nashik, Maharashtra, India","Nashik, Nashik Taluka, Nashik, Maharashtra, 422001, India",20.0112475,73.7902364
"Airoli, Navi Mumbai - MPCB",Navi Mumbai,Maharashtra,"Navi Mumbai, Maharashtra, India","Navi Mumbai, Thane Taluka, Thane, Maharashtra, India",19.0308262,73.0198537
"Mahape, Navi Mumbai - MPCB",Navi Mumbai,Maharashtra,"Navi Mumbai, Maharashtra, India","Navi Mumbai, Thane Taluka, Thane, Maharashtra, India",19.0308262,73.0198537
"Nerul, Navi Mumbai - MPCB",Navi Mumbai,Maharashtra,"Navi Mumbai, Maharashtra, India","Navi Mumbai, Thane Taluka, Thane, Maharashtra, India",19.0308262,73.0198537
"Karve Road, Pune - MPCB",Pune,Maharashtra,"Pune, Maharashtra, India","Pune City, Pune, Maharashtra, India",18.5213738,73.8545071
"Solapur, Solapur - MPCB",Solapur,Maharashtra,"Solapur, Maharashtra, India","Solapur, Maharashtra, India",17.8499067,75.2763203
"Pimpleshwar Mandir, Thane - MPCB",Thane,Maharashtra,"Thane, Maharashtra, India","Thane, Thane Taluka, Thane, Maharashtra, India",19.1943294,72.9701779
"Lumpyngngad, Shillong - Meghalaya PCB",Shillong,Meghalaya,"Shillong, Meghalaya, India","Shillong, Police Bazar Road, Mawkhar, Shillong, Mylliem, East Khasi Hills, Meghalaya, 793001, India",25.5760446,91.8825282
"Sikulpuikawn, Aizawl - Mizoram PCB",Aizawl,Mizoram,"Aizawl, Mizoram, India","Aizawl, Tlangnuam, Aizawl, Mizoram, 796190, India",23.7433532,92.7382756
"GM Office, Brajrajnagar - OSPCB",Brajrajnagar,Odisha,"Brajrajnagar, Odisha, India","Community Health Centre, Brajrajnagar, Bilaspur - Kharagpur Highway, Orient, Jharsuguda, Odisha, 768216, India",21.8498594,83.9254698
"Talcher Coalfields,Talcher - OSPCB",Talcher,Odisha,"Talcher, Odisha, India","Talcher, Angul - Talcher Road, Talcher, Colliery, Angul, Odisha, 759100, India",20.9322302,85.2005822
"Golden Temple, Amritsar - PPCB",Amritsar,Punjab,"Amritsar, Punjab, India","Amritsar, Amritsar I Tahsil, Amritsar, Punjab, 143001, India",31.6356659,74.8787496
"Hardev Nagar, Bathinda - PPCB",Bathinda,Punjab,"Bathinda, Punjab, India","Bathinda, Punjab, India",30.1794813,75.0471098
"Civil Line, Jalandhar - PPCB",Jalandhar,Punjab,"Jalandhar, Punjab, India","Jalandhar, Punjab, India",31.2922311,75.5678878
"Kalal Majra, Khanna - PPCB",Khanna,Punjab,"Khanna, Punjab, India","Khanna, Khanna Tahsil, Ludhiana, Punjab, 141401, India",30.700625,76.2220763
"Punjab Agricultural University, Ludhiana - PPCB",Ludhiana,Punjab,"Ludhiana, Punjab, India","Ludhiana, Ludhiana (West) Tahsil, Ludhiana, Punjab, 141001, India",30.9090157,75.851601
"RIMT University, Mandi Gobindgarh - PPCB",Gobindgarh,Punjab,"Gobindgarh, Punjab, India","Gobindgarh, Ludhiana (East) Tahsil, Ludhiana, Punjab, 141017, India",30.8613538,75.9461613
"Model Town, Patiala - PPCB",Patiala,Punjab,"Patiala, Punjab, India","Patiala, Punjab, India",30.2092777,76.3397231
"Ratanpura, Rupnagar - Ambuja Cements",Rupnagar,Punjab,"Rupnagar, Punjab, India","Rupnagar, Punjab, India",31.0917102,76.5289701
"Moti Doongri, Alwar - RSPCB",Alwar,Rajasthan,"Alwar, Rajasthan, India","Alwar, Rajasthan, India",27.4140048,76.6170387
"Civil Lines, Ajmer - RSPCB",Ajmer,Rajasthan,"Ajmer, Rajasthan, India","Ajmer, Ajmer Tehsil, Ajmer, Rajasthan, India",26.4691,74.639
"RIICO Ind. Area III, Bhiwadi - RSPCB",Bhiwandi,Rajasthan,"Bhiwandi, Rajasthan, India",,-1,-1
"Adarsh Nagar, Jaipur - RSPCB",Jaipur,Rajasthan,"Jaipur, Rajasthan, India","Jaipur, Jaipur Municipal Corporation, Jaipur Tehsil, Jaipur, Rajasthan, 302001, India",26.9154576,75.8189817
"Police Commissionerate, Jaipur - RSPCB",Jaipur,Rajasthan,"Jaipur, Rajasthan, India","Jaipur, Jaipur Municipal Corporation, Jaipur Tehsil, Jaipur, Rajasthan, 302001, India",26.9154576,75.8189817
"Shastri Nagar, Jaipur - RSPCB",Jaipur,Rajasthan,"Jaipur, Rajasthan, India","Jaipur, Jaipur Municipal Corporation, Jaipur Tehsil, Jaipur, Rajasthan, 302001, India",26.9154576,75.8189817
"Collectorate, Jodhpur - RSPCB",Jodhpur,Rajasthan,"Jodhpur, Rajasthan, India","Jodhpur, Jodhpur Tehsil, Jodhpur, Rajasthan, India",26.2967719,73.0351433
"Shrinath Puram, Kota - RSPCB",Kota,Rajasthan,"Kota, Rajasthan, India","Kota, Ladpura Tehsil, Kota, Rajasthan, 324001, India",25.1737019,75.8574194
"Indira Colony Vistar, Pali - RSPCB",Pali,Rajasthan,"Pali, Rajasthan, India","Pali, Rajasthan, India",25.455221,73.419389
"Ashok Nagar, Udaipur - RSPCB",Udaipur,Rajasthan,"Udaipur, Rajasthan, India","Udaipur, Girwa Tehsil, Udaipur, Rajasthan, 313001, India",24.578721,73.6862571
"Alandur Bus Depot, Chennai - CPCB",Chennai,Tamil Nadu,"Chennai, Tamil Nadu, India","Chennai, Tamil Nadu, 600001, India",13.0836939,80.270186
"Manali Village, Chennai - TNPCB",Chennai,Tamil Nadu,"Chennai, Tamil Nadu, India","Chennai, Tamil Nadu, 600001, India",13.0836939,80.270186
"Manali, Chennai - CPCB",Chennai,Tamil Nadu,"Chennai, Tamil Nadu, India","Chennai, Tamil Nadu, 600001, India",13.0836939,80.270186
"Velachery Res. Area, Chennai - CPCB",Chennai,Tamil Nadu,"Chennai, Tamil Nadu, India","Chennai, Tamil Nadu, 600001, India",13.0836939,80.270186
"SIDCO Kurichi, Coimbatore - TNPCB",Coimbatore,Tamil Nadu,"Coimbatore, Tamil Nadu, India","Coimbatore, Coimbatore North, Coimbatore, Tamil Nadu, 641001, India",11.0018115,76.9628425
"Bollaram Industrial Area, Hyderabad - TSPCB",Hyderabad,Telangana,"Hyderabad, Telangana, India","Hyderabad, Bahadurpura mandal, Hyderabad, Telangana, India",17.360589,78.4740613
"Central University, Hyderabad - TSPCB",Hyderabad,Telangana,"Hyderabad, Telangana, India","Hyderabad, Bahadurpura mandal, Hyderabad, Telangana, India",17.360589,78.4740613
"ICRISAT Patancheru, Hyderabad - TSPCB",Hyderabad,Telangana,"Hyderabad, Telangana, India","Hyderabad, Bahadurpura mandal, Hyderabad, Telangana, India",17.360589,78.4740613
"IDA Pashamylaram, Hyderabad - TSPCB",Hyderabad,Telangana,"Hyderabad, Telangana, India","Hyderabad, Bahadurpura mandal, Hyderabad, Telangana, India",17.360589,78.4740613
"Sanathnagar, Hyderabad - TSPCB",Hyderabad,Telangana,"Hyderabad, Telangana, India","Hyderabad, Bahadurpura mandal, Hyderabad, Telangana, India",17.360589,78.4740613
"Zoo Park, Hyderabad - TSPCB",Hyderabad,Telangana,"Hyderabad, Telangana, India","Hyderabad, Bahadurpura mandal, Hyderabad, Telangana, India",17.360589,78.4740613
"Sanjay Palace, Agra - UPPCB",Agra,Uttar Pradesh,"Agra, Uttar Pradesh, India","Agra, Uttar Pradesh, India",27.1752554,78.0098161
"New Collectorate, Baghpat - UPPCB",Baghpat,Uttar Pradesh,"Baghpat, Uttar Pradesh, India","Baghpat, Uttar Pradesh, India",29.0374779,77.3062737
"Yamunapuram, Bulandshahr - UPPCB",Bulandshahr,Uttar Pradesh,"Bulandshahr, Uttar Pradesh, India","Bulandshahr, Uttar Pradesh, India",28.3874073,77.9743805
"Indirapuram, Ghaziabad - UPPCB",Ghaziabad,Uttar Pradesh,"Ghaziabad, Uttar Pradesh, India","Ghaziabad, Uttar Pradesh, India",28.7749966,77.4586967
"Loni, Ghaziabad - UPPCB",Ghaziabad,Uttar Pradesh,"Ghaziabad, Uttar Pradesh, India","Ghaziabad, Uttar Pradesh, India",28.7749966,77.4586967
"Sanjay Nagar, Ghaziabad - UPPCB",Ghaziabad,Uttar Pradesh,"Ghaziabad, Uttar Pradesh, India","Ghaziabad, Uttar Pradesh, India",28.7749966,77.4586967
"Vasundhara, Ghaziabad - UPPCB",Ghaziabad,Uttar Pradesh,"Ghaziabad, Uttar Pradesh, India","Ghaziabad, Uttar Pradesh, India",28.7749966,77.4586967
"Knowledge Park - III, Greater Noida - UPPCB",Greater Noida,Uttar Pradesh,"Greater Noida, Uttar Pradesh, India","Greater Noida, Gautam Buddha Nagar, Uttar Pradesh, 201310, India",28.4670734,77.5137649
"Knowledge Park - V, Greater Noida - UPPCB",Greater Noida,Uttar Pradesh,"Greater Noida, Uttar Pradesh, India","Greater Noida, Gautam Buddha Nagar, Uttar Pradesh, 201310, India",28.4670734,77.5137649
"Anand Vihar, Hapur - UPPCB",Hapur,Uttar Pradesh,"Hapur, Uttar Pradesh, India","Hapur, Uttar Pradesh, India",28.7166767,77.890433
"Nehru Nagar, Kanpur - UPPCB",Kanpur,Uttar Pradesh,"Kanpur, Uttar Pradesh, India","Kanpur, Kanpur Nagar, Uttar Pradesh, India",26.4609135,80.3217588
"Central School, Lucknow - CPCB",Lucknow,Uttar Pradesh,"Lucknow, Uttar Pradesh, India","Lucknow, Uttar Pradesh, 226027, India",26.8381,80.9346001
"Gomti Nagar, Lucknow - UPPCB",Lucknow,Uttar Pradesh,"Lucknow, Uttar Pradesh, India","Lucknow, Uttar Pradesh, 226027, India",26.8381,80.9346001
"Lalbagh, Lucknow - CPCB",Lucknow,Uttar Pradesh,"Lucknow, Uttar Pradesh, India","Lucknow, Uttar Pradesh, 226027, India",26.8381,80.9346001
"Nishant Ganj, Lucknow - UPPCB",Lucknow,Uttar Pradesh,"Lucknow, Uttar Pradesh, India","Lucknow, Uttar Pradesh, 226027, India",26.8381,80.9346001
"Talkatora District Industries Center, Lucknow - CPCB",Lucknow,Uttar Pradesh,"Lucknow, Uttar Pradesh, India","Lucknow, Uttar Pradesh, 226027, India",26.8381,80.9346001
"Ganga Nagar, Meerut - UPPCB",Meerut,Uttar Pradesh,"Meerut, Uttar Pradesh, India","Meerut, Uttar Pradesh, India",29.0018557,77.7679671
"Jai Bhim Nagar, Meerut - UPPCB",Meerut,Uttar Pradesh,"Meerut, Uttar Pradesh, India","Meerut, Uttar Pradesh, India",29.0018557,77.7679671
"Pallavpuram Phase 2, Meerut - UPPCB",Meerut,Uttar Pradesh,"Meerut, Uttar Pradesh, India","Meerut, Uttar Pradesh, India",29.0018557,77.7679671
"Lajpat Nagar, Moradabad - UPPCB",Moradabad,Uttar Pradesh,"Moradabad, Uttar Pradesh, India","Moradabad, Uttar Pradesh, India",28.8796553,78.8095335
"New Mandi, Muzaffarnagar - UPPCB",Muzzaffarnagar,Uttar Pradesh,"Muzzaffarnagar, Uttar Pradesh, India",,-1,-1
"Sector - 125, Noida - UPPCB",Noida,Uttar Pradesh,"Noida, Uttar Pradesh, India","Noida, Dadri, Gautam Buddha Nagar, Uttar Pradesh, India",28.5706333,77.3272147
"Sector - 62, Noida - IMD",Noida,Uttar Pradesh,"Noida, Uttar Pradesh, India","Noida, Dadri, Gautam Buddha Nagar, Uttar Pradesh, India",28.5706333,77.3272147
"Sector-1, Noida - UPPCB",Noida,Uttar Pradesh,"Noida, Uttar Pradesh, India","Noida, Dadri, Gautam Buddha Nagar, Uttar Pradesh, India",28.5706333,77.3272147
"Sector-116, Noida - UPPCB",Noida,Uttar Pradesh,"Noida, Uttar Pradesh, India","Noida, Dadri, Gautam Buddha Nagar, Uttar Pradesh, India",28.5706333,77.3272147
"Ardhali Bazar, Varanasi - UPPCB",Varanasi,Uttar Pradesh,"Varanasi, Uttar Pradesh, India","Varanasi, Sadar, Varanasi, Uttar Pradesh, 221001, India",25.3356491,83.0076292
"Asansol Court Area, Asansol - WBPCB",Asansol,West Bengal,"Asansol, West Bengal, India","Asansol, Asansol Kulti Township, Paschim Bardhaman, West Bengal, India",23.6871297,86.9746587
"Sidhu Kanhu Indoor Stadium, Durgapur - WBPCB",Durgapur,West Bengal,"Durgapur, West Bengal, India","Durgapur, Faridpur Durgapur, Paschim Bardhaman, West Bengal, 713200, India",23.5350475,87.3380425
"Haldia, Haldia - WBPCB",Haldia,West Bengal,"Haldia, West Bengal, India","Haldia, Purba Medinipur, West Bengal, 721604, India",22.028124,88.0632655
"Belur Math, Howrah - WBPCB",Howrah,West Bengal,"Howrah, West Bengal, India","Haora, Howrah, West Bengal, India",22.5736296,88.3251045
"Ghusuri, Howrah - WBPCB",Howrah,West Bengal,"Howrah, West Bengal, India","Haora, Howrah, West Bengal, India",22.5736296,88.3251045
"Padmapukur, Howrah - WBPCB",Howrah,West Bengal,"Howrah, West Bengal, India","Haora, Howrah, West Bengal, India",22.5736296,88.3251045
"Ballygunge, Kolkata - WBPCB",Kolkata,West Bengal,"Kolkata, West Bengal, India","Kolkata, West Bengal, India",22.5726459,88.3638953
"Bidhannagar, Kolkata - WBPCB",Kolkata,West Bengal,"Kolkata, West Bengal, India","Kolkata, West Bengal, India",22.5726459,88.3638953
"Fort William, Kolkata - WBPCB",Kolkata,West Bengal,"Kolkata, West Bengal, India","Kolkata, West Bengal, India",22.5726459,88.3638953
"Jadavpur, Kolkata - WBPCB",Kolkata,West Bengal,"Kolkata, West Bengal, India","Kolkata, West Bengal, India",22.5726459,88.3638953
"Rabindra Bharati University, Kolkata - WBPCB",Kolkata,West Bengal,"Kolkata, West Bengal, India","Kolkata, West Bengal, India",22.5726459,88.3638953
"Rabindra Sarobar, Kolkata - WBPCB",Kolkata,West Bengal,"Kolkata, West Bengal, India","Kolkata, West Bengal, India",22.5726459,88.3638953
"Victoria, Kolkata - WBPCB",Kolkata,West Bengal,"Kolkata, West Bengal, India","Kolkata, West Bengal, India",22.5726459,88.3638953
"Ward-32 Bapupara, Siliguri - WBPCB",Siliguri,West Bengal,"Siliguri, West Bengal, India","Siliguri, Siliguri Subdivsion, Darjeeling, West Bengal, India",26.7164127,88.4309916
