StationId,StationName,City,State,FullAddress,location,latitude,longitude,road_distance,river_distance,industry_distance
AP001,"Secretariat, Amaravati - APPCB",Amaravati,Andhra Pradesh,"Amaravati, Andhra Pradesh, India","Amaravati, Thullur, Guntur, Andhra Pradesh, India",16.5096679,80.5184535,192.6634086,928.2927226,8084.438724
AP002,"Anand Kala Kshetram, Rajamahendravaram - APPCB",Rajamahendravaram,Andhra Pradesh,"Rajamahendravaram, Andhra Pradesh, India","Rajamahendravaram, Rajahmundry (Urban), East Godavari, Andhra Pradesh, 533100, India",17.0050454,81.7804732,11.37412904,708.0604364,2340.651957
AP003,"Tirumala, Tirupati - APPCB",Tirupati,Andhra Pradesh,"Tirupati, Andhra Pradesh, India","Tirupati, Tirupati (Urban), Tirupati, Andhra Pradesh, 517500, India",13.6316368,79.4231711,2.598243333,331.0993482,6312.377728
AP004,"PWD Grounds, Vijayawada - APPCB",Vijayawada,Andhra Pradesh,"Vijayawada, Andhra Pradesh, India","Vijayawada, NTR, Andhra Pradesh, 520001, India",16.5115306,80.6160469,28.61992187,24.93375179,259.9024868
AP005,"GVM Corporation, Visakhapatnam - APPCB",Visakhapatnam,Andhra Pradesh,"Visakhapatnam, Andhra Pradesh, India","Visakhapatnam, Visakhapatnam (Urban), Visakhapatnam, Andhra Pradesh, 530001, India",17.6935526,83.2921297,10.23643339,156.2893491,132.030456
AS001,"Railway Colony, Guwahati - APCB",Guwahati,Assam,"Guwahati, Assam, India","Guwahati, Kamrup Metropolitan, Assam, 781015, India",26.1805978,91.753943,8.610074756,569.9202778,2194.657663
BR001,"Collectorate, Gaya - BSPCB",Gaya,Bihar,"Gaya, Bihar, India","Gaya, Bihar, India",24.6793889,85.0115833,460.4361048,885.7255847,2511.453309
BR002,"SFTI Kusdihra, Gaya - BSPCB",Gaya,Bihar,"Gaya, Bihar, India","Gaya, Bihar, India",24.6793889,85.0115833,460.4361048,885.7255847,2511.453309
BR003,"Industrial Area, Hajipur - BSPCB",Hajipur,Bihar,"Hajipur, Bihar, India","Hajipur, Vaishali, Bihar, 844101, India",25.6905702,85.2090351,30.8137101,237.4448443,2437.809325
BR004,"Muzaffarpur Collectorate, Muzaffarpur - BSPCB",Muzaffarpur,Bihar,"Muzaffarpur, Bihar, India","Muzaffarpur, Bihar, India",26.1482548,85.3316097,43.07456462,2075.153304,1516.585224
BR005,"DRM Office Danapur, Patna - BSPCB",Patna,Bihar,"Patna, Bihar, India","Patna, Patna Rural, Patna, Bihar, 800001, India",25.6093239,85.1235252,36.17227953,585.6405886,1713.134402
BR006,"Govt. High School Shikarpur, Patna - BSPCB",Patna,Bihar,"Patna, Bihar, India","Patna, Patna Rural, Patna, Bihar, 800001, India",25.6093239,85.1235252,36.17227953,585.6405886,1713.134402
BR007,"IGSC Planetarium Complex, Patna - BSPCB",Patna,Bihar,"Patna, Bihar, India","Patna, Patna Rural, Patna, Bihar, 800001, India",25.6093239,85.1235252,36.17227953,585.6405886,1713.134402
BR008,"Muradpur, Patna - BSPCB",Patna,Bihar,"Patna, Bihar, India","Patna, Patna Rural, Patna, Bihar, 800001, India",25.6093239,85.1235252,36.17227953,585.6405886,1713.134402
BR009,"Rajbansi Nagar, Patna - BSPCB",Patna,Bihar,"Patna, Bihar, India","Patna, Patna Rural, Patna, Bihar, 800001, India",25.6093239,85.1235252,36.17227953,585.6405886,1713.134402
BR010,"Samanpura, Patna - BSPCB",Patna,Bihar,"Patna, Bihar, India","Patna, Patna Rural, Patna, Bihar, 800001, India",25.6093239,85.1235252,36.17227953,585.6405886,1713.134402
CH001,"Sector-25, Chandigarh - CPCC",Chandigarh,Chandigarh,"Chandigarh, Chandigarh, India","Chandigarh, India",30.7334421,76.7797143,36.21857975,1477.518953,760.6934112
DL001,"Alipur, Delhi - DPCC",Delhi,Delhi,"Delhi, Delhi, India","Delhi, Kotwali Tehsil, Central Delhi, Delhi, 110006, India",28.6517178,77.2219388,38.15923884,618.4308839,1885.161044
DL002,"Anand Vihar, Delhi - DPCC",Delhi,Delhi,"Delhi, Delhi, India","Delhi, Kotwali Tehsil, Central Delhi, Delhi, 110006, India",28.6517178,77.2219388,38.15923884,618.4308839,1885.161044
DL003,"Ashok Vihar, Delhi - DPCC",Delhi,Delhi,"Delhi, Delhi, India","Delhi, Kotwali Tehsil, Central Delhi, Delhi, 110006, India",28.6517178,77.2219388,38.15923884,618.4308839,1885.161044
DL004,"Aya Nagar, Delhi - IMD",Delhi,Delhi,"Delhi, Delhi, India","Delhi, Kotwali Tehsil, Central Delhi, Delhi, 110006, India",28.6517178,77.2219388,38.15923884,618.4308839,1885.161044
DL005,"Bawana, Delhi - DPCC",Delhi,Delhi,"Delhi, Delhi, India","Delhi, Kotwali Tehsil, Central Delhi, Delhi, 110006, India",28.6517178,77.2219388,38.15923884,618.4308839,1885.161044
DL006,"Burari Crossing, Delhi - IMD",Delhi,Delhi,"Delhi, Delhi, India","Delhi, Kotwali Tehsil, Central Delhi, Delhi, 110006, India",28.6517178,77.2219388,38.15923884,618.4308839,1885.161044
DL007,"CRRI Mathura Road, Delhi - IMD",Delhi,Delhi,"Delhi, Delhi, India","Delhi, Kotwali Tehsil, Central Delhi, Delhi, 110006, India",28.6517178,77.2219388,38.15923884,618.4308839,1885.161044
DL008,"DTU, Delhi - CPCB",Delhi,Delhi,"Delhi, Delhi, India","Delhi, Kotwali Tehsil, Central Delhi, Delhi, 110006, India",28.6517178,77.2219388,38.15923884,618.4308839,1885.161044
DL009,"Dr. Karni Singh Shooting Range, Delhi - DPCC",Delhi,Delhi,"Delhi, Delhi, India","Delhi, Kotwali Tehsil, Central Delhi, Delhi, 110006, India",28.6517178,77.2219388,38.15923884,618.4308839,1885.161044
DL010,"Dwarka-Sector 8, Delhi - DPCC",Delhi,Delhi,"Delhi, Delhi, India","Delhi, Kotwali Tehsil, Central Delhi, Delhi, 110006, India",28.6517178,77.2219388,38.15923884,618.4308839,1885.161044
DL011,"East Arjun Nagar, Delhi - CPCB",Delhi,Delhi,"Delhi, Delhi, India","Delhi, Kotwali Tehsil, Central Delhi, Delhi, 110006, India",28.6517178,77.2219388,38.15923884,618.4308839,1885.161044
DL012,"IGI Airport (T3), Delhi - IMD",Delhi,Delhi,"Delhi, Delhi, India","Delhi, Kotwali Tehsil, Central Delhi, Delhi, 110006, India",28.6517178,77.2219388,38.15923884,618.4308839,1885.161044
DL013,"IHBAS, Dilshad Garden, Delhi - CPCB",Delhi,Delhi,"Delhi, Delhi, India","Delhi, Kotwali Tehsil, Central Delhi, Delhi, 110006, India",28.6517178,77.2219388,38.15923884,618.4308839,1885.161044
DL014,"ITO, Delhi - CPCB",Delhi,Delhi,"Delhi, Delhi, India","Delhi, Kotwali Tehsil, Central Delhi, Delhi, 110006, India",28.6517178,77.2219388,38.15923884,618.4308839,1885.161044
DL015,"Jahangirpuri, Delhi - DPCC",Delhi,Delhi,"Delhi, Delhi, India","Delhi, Kotwali Tehsil, Central Delhi, Delhi, 110006, India",28.6517178,77.2219388,38.15923884,618.4308839,1885.161044
DL016,"Jawaharlal Nehru Stadium, Delhi - DPCC",Delhi,Delhi,"Delhi, Delhi, India","Delhi, Kotwali Tehsil, Central Delhi, Delhi, 110006, India",28.6517178,77.2219388,38.15923884,618.4308839,1885.161044
DL017,"Lodhi Road, Delhi - IMD",Delhi,Delhi,"Delhi, Delhi, India","Delhi, Kotwali Tehsil, Central Delhi, Delhi, 110006, India",28.6517178,77.2219388,38.15923884,618.4308839,1885.161044
DL018,"Major Dhyan Chand National Stadium, Delhi - DPCC",Delhi,Delhi,"Delhi, Delhi, India","Delhi, Kotwali Tehsil, Central Delhi, Delhi, 110006, India",28.6517178,77.2219388,38.15923884,618.4308839,1885.161044
DL019,"Mandir Marg, Delhi - DPCC",Delhi,Delhi,"Delhi, Delhi, India","Delhi, Kotwali Tehsil, Central Delhi, Delhi, 110006, India",28.6517178,77.2219388,38.15923884,618.4308839,1885.161044
DL020,"Mundka, Delhi - DPCC",Delhi,Delhi,"Delhi, Delhi, India","Delhi, Kotwali Tehsil, Central Delhi, Delhi, 110006, India",28.6517178,77.2219388,38.15923884,618.4308839,1885.161044
DL021,"NSIT Dwarka, Delhi - CPCB",Delhi,Delhi,"Delhi, Delhi, India","Delhi, Kotwali Tehsil, Central Delhi, Delhi, 110006, India",28.6517178,77.2219388,38.15923884,618.4308839,1885.161044
DL022,"Najafgarh, Delhi - DPCC",Delhi,Delhi,"Delhi, Delhi, India","Delhi, Kotwali Tehsil, Central Delhi, Delhi, 110006, India",28.6517178,77.2219388,38.15923884,618.4308839,1885.161044
DL023,"Narela, Delhi - DPCC",Delhi,Delhi,"Delhi, Delhi, India","Delhi, Kotwali Tehsil, Central Delhi, Delhi, 110006, India",28.6517178,77.2219388,38.15923884,618.4308839,1885.161044
DL024,"Nehru Nagar, Delhi - DPCC",Delhi,Delhi,"Delhi, Delhi, India","Delhi, Kotwali Tehsil, Central Delhi, Delhi, 110006, India",28.6517178,77.2219388,38.15923884,618.4308839,1885.161044
DL025,"North Campus, DU, Delhi - IMD",Delhi,Delhi,"Delhi, Delhi, India","Delhi, Kotwali Tehsil, Central Delhi, Delhi, 110006, India",28.6517178,77.2219388,38.15923884,618.4308839,1885.161044
DL026,"Okhla Phase-2, Delhi - DPCC",Delhi,Delhi,"Delhi, Delhi, India","Delhi, Kotwali Tehsil, Central Delhi, Delhi, 110006, India",28.6517178,77.2219388,38.15923884,618.4308839,1885.161044
DL027,"Patparganj, Delhi - DPCC",Delhi,Delhi,"Delhi, Delhi, India","Delhi, Kotwali Tehsil, Central Delhi, Delhi, 110006, India",28.6517178,77.2219388,38.15923884,618.4308839,1885.161044
DL028,"Punjabi Bagh, Delhi - DPCC",Delhi,Delhi,"Delhi, Delhi, India","Delhi, Kotwali Tehsil, Central Delhi, Delhi, 110006, India",28.6517178,77.2219388,38.15923884,618.4308839,1885.161044
DL029,"Pusa, Delhi - DPCC",Delhi,Delhi,"Delhi, Delhi, India","Delhi, Kotwali Tehsil, Central Delhi, Delhi, 110006, India",28.6517178,77.2219388,38.15923884,618.4308839,1885.161044
DL030,"Pusa, Delhi - IMD",Delhi,Delhi,"Delhi, Delhi, India","Delhi, Kotwali Tehsil, Central Delhi, Delhi, 110006, India",28.6517178,77.2219388,38.15923884,618.4308839,1885.161044
DL031,"R K Puram, Delhi - DPCC",Delhi,Delhi,"Delhi, Delhi, India","Delhi, Kotwali Tehsil, Central Delhi, Delhi, 110006, India",28.6517178,77.2219388,38.15923884,618.4308839,1885.161044
DL032,"Rohini, Delhi - DPCC",Delhi,Delhi,"Delhi, Delhi, India","Delhi, Kotwali Tehsil, Central Delhi, Delhi, 110006, India",28.6517178,77.2219388,38.15923884,618.4308839,1885.161044
DL033,"Shadipur, Delhi - CPCB",Delhi,Delhi,"Delhi, Delhi, India","Delhi, Kotwali Tehsil, Central Delhi, Delhi, 110006, India",28.6517178,77.2219388,38.15923884,618.4308839,1885.161044
DL034,"Sirifort, Delhi - CPCB",Delhi,Delhi,"Delhi, Delhi, India","Delhi, Kotwali Tehsil, Central Delhi, Delhi, 110006, India",28.6517178,77.2219388,38.15923884,618.4308839,1885.161044
DL035,"Sonia Vihar, Delhi - DPCC",Delhi,Delhi,"Delhi, Delhi, India","Delhi, Kotwali Tehsil, Central Delhi, Delhi, 110006, India",28.6517178,77.2219388,38.15923884,618.4308839,1885.161044
DL036,"Sri Aurobindo Marg, Delhi - DPCC",Delhi,Delhi,"Delhi, Delhi, India","Delhi, Kotwali Tehsil, Central Delhi, Delhi, 110006, India",28.6517178,77.2219388,38.15923884,618.4308839,1885.161044
DL037,"Vivek Vihar, Delhi - DPCC",Delhi,Delhi,"Delhi, Delhi, India","Delhi, Kotwali Tehsil, Central Delhi, Delhi, 110006, India",28.6517178,77.2219388,38.15923884,618.4308839,1885.161044
DL038,"Wazirpur, Delhi - DPCC",Delhi,Delhi,"Delhi, Delhi, India","Delhi, Kotwali Tehsil, Central Delhi, Delhi, 110006, India",28.6517178,77.2219388,38.15923884,618.4308839,1885.161044
GJ001,"Maninagar, Ahmedabad - GPCB",Ahmedabad,Gujarat,"Ahmedabad, Gujarat, India","Ahmedabad, Gujarat, 380001, India",23.0215374,72.5800568,51.02614576,359.8826063,1291.214949
GJ002,"GIDC, Ankleshwar - GPCB",Ankleshwar,Gujarat,"Ankleshwar, Gujarat, India","Ankleshwar, Ankleshwar Taluka, Bharuch, Gujarat, India",21.6293206,72.9945103,7.334456751,912.1685877,866.5467265
GJ003,"Sector-10, Gandhinagar - GPCB",Gandhinagar,Gujarat,"Gandhinagar, Gujarat, India","Gandhinagar, Gandhinagar Taluka, Gandhinagar, Gujarat, India",23.2232877,72.6492267,66.27026766,297.3751964,2412.343533
GJ004,"GIDC, Nandesari - Nandesari Ind. Association",Nandesari,Gujarat,"Nandesari, Gujarat, India","Nandesari, NH48, Vadodara Rural Taluka, Vadodara, Gujarat, 391350, India",22.4178037,73.0949186,33.10302023,2743.073051,13.80049731
GJ005,"Phase-1 GIDC, Vapi - GPCB",Vapi,Gujarat,"Vapi, Gujarat, India","Vapi, Daman Road, Vapi, Vapi Taluka, Valsad, Gujarat, 396191, India",20.3735482,72.9084376,15.33554683,1542.124254,1022.757012
GJ006,"Phase-4 GIDC, Vatva - GPCB",Vatva,Gujarat,"Vatva, Gujarat, India","Vatva, Vatva phase -2 road, Vatva Gidc, Vatva Taluka, Ahmedabad, Gujarat, 382445, India",22.9589978,72.6297981,11.45434074,1176.302379,35.10636999
HR001,"Patti Mehar, Ambala - HSPCB",Ambala,Haryana,"Ambala, Haryana, India","Ambala, Ambala Cantt, Ambala, Haryana, 134002, India",30.3843674,76.770421,39.92666644,761.00798,1471.549855
HR002,"Arya Nagar, Bahadurgarh - HSPCB",Bahadurgarh,Haryana,"Bahadurgarh, Haryana, India","Bahadurgarh, Jhajjar, Haryana, India",28.6609648,76.8346765,3.534755618,725.7641373,6814.363228
HR003,"Nathu Colony, Ballabgarh - HSPCB",Ballabgarh,Haryana,"Ballabgarh, Haryana, India","Ballabgarh, Faridabad, Haryana, India",28.2940728,77.3592238,39.48170715,1903.099294,4108.902589
HR004,"H.B. Colony, Bhiwani - HSPCB",Bhiwani,Haryana,"Bhiwani, Haryana, India","Bhiwani, Haryana, 125021, India",28.7931703,76.1391283,2.43894511,258.9225827,1277.198585
HR005,"Municipal Corporation Office, Dharuhera - HSPCB",Dharuhera,Haryana,"Dharuhera, Haryana, India","Dharuhera, Rewari, Haryana, 123106, India",28.2055216,76.7953099,10.05763679,3127.936765,531.3712434
HR006,"New Industrial Town, Faridabad - HSPCB",Faridabad,Haryana,"Faridabad, Haryana, India","Faridabad, Haryana, 121001, India",28.4031478,77.3105561,46.8375728,823.8190339,1287.572049
HR007,"Sector 11, Faridabad - HSPCB",Faridabad,Haryana,"Faridabad, Haryana, India","Faridabad, Haryana, 121001, India",28.4031478,77.3105561,46.8375728,823.8190339,1287.572049
HR008,"Sector 30, Faridabad - HSPCB",Faridabad,Haryana,"Faridabad, Haryana, India","Faridabad, Haryana, 121001, India",28.4031478,77.3105561,46.8375728,823.8190339,1287.572049
HR009,"Sector- 16A, Faridabad - HSPCB",Faridabad,Haryana,"Faridabad, Haryana, India","Faridabad, Haryana, 121001, India",28.4031478,77.3105561,46.8375728,823.8190339,1287.572049
HR010,"Huda Sector, Fatehabad - HSPCB",Fatehabad,Haryana,"Fatehabad, Haryana, India","Fatehabad, Haryana, India",29.5359209,75.5752901,195.1175123,2597.726501,10064.24998
HR011,"NISE Gwal Pahari, Gurugram - IMD",Gurugram,Haryana,"Gurugram, Haryana, India","Gurugram, Haryana, India",28.4646148,77.0299194,22.76700781,920.6391137,2459.911796
HR012,"Sector-51, Gurugram - HSPCB",Gurugram,Haryana,"Gurugram, Haryana, India","Gurugram, Haryana, India",28.4646148,77.0299194,22.76700781,920.6391137,2459.911796
HR013,"Teri Gram, Gurugram - HSPCB",Gurugram,Haryana,"Gurugram, Haryana, India","Gurugram, Haryana, India",28.4646148,77.0299194,22.76700781,920.6391137,2459.911796
HR014,"Vikas Sadan, Gurugram - HSPCB",Gurugram,Haryana,"Gurugram, Haryana, India","Gurugram, Haryana, India",28.4646148,77.0299194,22.76700781,920.6391137,2459.911796
HR015,"Urban Estate-II, Hisar - HSPCB",Hisar,Haryana,"Hisar, Haryana, India","Hisar, Haryana, India",29.2396596,75.8174505,49.11381664,7168.342019,11013.08076
HR016,"Police Lines, Jind - HSPCB",Jind,Haryana,"Jind, Haryana, India","Jind, Haryana, 126100, India",29.3152073,76.314082,37.68168256,361.2406615,2049.886896
HR017,"Rishi Nagar, Kaithal - HSPCB",Kaithal,Haryana,"Kaithal, Haryana, India","Kaithal, Haryana, 132027, India",29.7996588,76.3989903,154.8806164,42.37162898,1845.125645
HR018,"Sector-12, Karnal - HSPCB",Karnal,Haryana,"Karnal, Haryana, India","Karnal, Haryana, India",29.7255766,76.9106924,12.49847672,2877.521861,6035.94064
HR019,"Sector-7, Kurukshetra - HSPCB",Kurukshetra,Haryana,"Kurukshetra, Haryana, India","Kurukshetra, Thanesar, Kurukshetra, Haryana, 132118, India",29.9693747,76.8482787,1.170105831,1308.543059,1082.619606
HR020,"General Hospital, Mandikhera - HSPCB",Mandikhera,Haryana,"Mandikhera, Haryana, India","Mandikhera, Ferozepur Jhirka, Nuh, Haryana, 122008, India",27.897075,76.9922014,5000,15000,30000
HR021,"Sector-2 IMT, Manesar - HSPCB",Manesar,Haryana,"Manesar, Haryana, India","Manesar, Gurugram, Haryana, India",28.3247096,76.9263787,1135.300601,943.6559142,4137.154497
HR022,"Shastri Nagar, Narnaul - HSPCB",Narnaul,Haryana,"Narnaul, Haryana, India","Narnaul, Mahendragarh, Haryana, 123001, India",28.0438456,76.1062015,6.32272236,1098.792109,906.6808804
HR023,"Shyam Nagar, Palwal - HSPCB",Palwal,Haryana,"Palwal, Haryana, India","Palwal, Haryana, India",28.0599426,77.3223422,141.5032671,1408.628894,3168.513872
HR024,"Sector-6, Panchkula - HSPCB",Panchkula,Haryana,"Panchkula, Haryana, India","Panchkula, Haryana, 134109, India",30.6975401,76.8551066,200.5654021,484.4670781,2617.808424
HR025,"Sector-18, Panipat - HSPCB",Panipat,Haryana,"Panipat, Haryana, India","Panipat, Haryana, 132100, India",29.3912753,76.9771675,21.16429138,1993.983846,1773.732968
HR026,"MD University, Rohtak - HSPCB",Rohtak,Haryana,"Rohtak, Haryana, India","Rohtak, Haryana, 124001, India",28.9010899,76.5801935,9.510800073,916.5812408,3164.343608
HR027,"F-Block, Sirsa - HSPCB",Sirsa,Haryana,"Sirsa, Haryana, India","Sirsa, Haryana, India",29.6063041,74.9036568,221.0384543,5147.857935,11944.35957
HR028,"Murthal, Sonipat - HSPCB",Sonipat,Haryana,"Sonipat, Haryana, India","Sonipat, Haryana, 131001, India",28.9953758,77.0233627,20.39168815,9751.512543,1722.258161
HR029,"Gobind Pura, Yamuna Nagar - HSPCB",Yamuna Nagar,Haryana,"Yamuna Nagar, Haryana, India","MLGH Trauma Centre Yamuna Nagar Blood Bank, Gobindpuri Road, Yamunanagar, Jagadhri, Yamunanagar, Haryana, 135001, India",30.1389108,77.301064,78.62113941,1588.409453,2070.407261
JH001,"Tata Stadium, Jorapokhar - JSPCB",Jorapokhar,Jharkhand,"Jorapokhar, Jharkhand, India","Jorapokhar, Jharia, Jharia-Cum-Jorapokhar-Cum-Sindri, Dhanbad, Jharkhand, 828111, India",23.7167069,86.4110166,11.04729048,2381.093326,1949.175915
KA001,"Vidayagiri, Bagalkot - KSPCB",Bagalkot,Karnataka,"Bagalkot, Karnataka, India","Bagalkot, Station Road, Bagalkote, Bagalakote taluk, Bagalkote, Karnataka, 587103, India",16.1793224,75.6999315,44.27331793,2061.928076,1808.743568
KA002,"BTM Layout, Bengaluru - CPCB",Bengaluru,Karnataka,"Bengaluru, Karnataka, India","Bengaluru, Bangalore North, Bengaluru Urban, Karnataka, India",12.9881567,77.6226,57.60147554,89.44091161,120.9149947
KA003,"BWSSB Kadabesanahalli, Bengaluru - CPCB",Bengaluru,Karnataka,"Bengaluru, Karnataka, India","Bengaluru, Bangalore North, Bengaluru Urban, Karnataka, India",12.9881567,77.6226,57.60147554,89.44091161,120.9149947
KA004,"Bapuji Nagar, Bengaluru - KSPCB",Bengaluru,Karnataka,"Bengaluru, Karnataka, India","Bengaluru, Bangalore North, Bengaluru Urban, Karnataka, India",12.9881567,77.6226,57.60147554,89.44091161,120.9149947
KA005,"City Railway Station, Bengaluru - KSPCB",Bengaluru,Karnataka,"Bengaluru, Karnataka, India","Bengaluru, Bangalore North, Bengaluru Urban, Karnataka, India",12.9881567,77.6226,57.60147554,89.44091161,120.9149947
KA006,"Hebbal, Bengaluru - KSPCB",Bengaluru,Karnataka,"Bengaluru, Karnataka, India","Bengaluru, Bangalore North, Bengaluru Urban, Karnataka, India",12.9881567,77.6226,57.60147554,89.44091161,120.9149947
KA007,"Hombegowda Nagar, Bengaluru - KSPCB",Bengaluru,Karnataka,"Bengaluru, Karnataka, India","Bengaluru, Bangalore North, Bengaluru Urban, Karnataka, India",12.9881567,77.6226,57.60147554,89.44091161,120.9149947
KA008,"Jayanagar 5th Block, Bengaluru - KSPCB",Bengaluru,Karnataka,"Bengaluru, Karnataka, India","Bengaluru, Bangalore North, Bengaluru Urban, Karnataka, India",12.9881567,77.6226,57.60147554,89.44091161,120.9149947
KA009,"Peenya, Bengaluru - CPCB",Bengaluru,Karnataka,"Bengaluru, Karnataka, India","Bengaluru, Bangalore North, Bengaluru Urban, Karnataka, India",12.9881567,77.6226,57.60147554,89.44091161,120.9149947
KA010,"Sanegurava Halli, Bengaluru - KSPCB",Bengaluru,Karnataka,"Bengaluru, Karnataka, India","Bengaluru, Bangalore North, Bengaluru Urban, Karnataka, India",12.9881567,77.6226,57.60147554,89.44091161,120.9149947
KA011,"Silk Board, Bengaluru - KSPCB",Bengaluru,Karnataka,"Bengaluru, Karnataka, India","Bengaluru, Bangalore North, Bengaluru Urban, Karnataka, India",12.9881567,77.6226,57.60147554,89.44091161,120.9149947
KA012,"Urban, Chamarajanagar - KSPCB",Chamarajanagar,Karnataka,"Chamarajanagar, Karnataka, India","Chamarajanagar, Karnataka, India",11.95442,77.1069086,5000,15000,30000
KA013,"Chikkaballapur Rural, Chikkaballapur - KSPCB",Chikkaballapur,Karnataka,"Chikkaballapur, Karnataka, India","Nelamangala - Chikkaballapur Highway, Nelamangala, Nelamangala taluk, Bengaluru Rural, Karnataka, 562123, India",13.0993764,77.388729,0.002700416,567.8689582,1717.013998
KA014,"Kalyana Nagara, Chikkamagaluru - KSPCB",Chikkamagaluru,Karnataka,"Chikkamagaluru, Karnataka, India","Chikkamagaluru, Karnataka, India",13.4058699,75.638758,600.7520616,5986.73698,18862.67776
KA015,"Deshpande Nagar, Hubballi - KSPCB",Hubballi,Karnataka,"Hubballi, Karnataka, India","Hubballi, Hubballi Urban Taluku, Dharwad, Karnataka, 580020, India",15.3518378,75.1379848,34.60407394,2038.258494,367.2345407
KA016,"Lal Bahadur Shastri Nagar, Kalaburagi - KSPCB",Kalaburagi,Karnataka,"Kalaburagi, Karnataka, India","Kalaburagi, Karnataka, India",17.2408957,76.7697439,440.4263703,8734.369824,3284.617657
KA017,"Hebbal 1st Stage, Mysuru - KSPCB",Mysuru,Karnataka,"Mysuru, Karnataka, India","Mysuru, Mysuru taluk, Mysuru, Karnataka, 570001, India",12.3041464,76.6529521,51.87844863,443.9865597,2072.1042
KA018,"Vijay Nagar, Ramanagara - KSPCB",Ramanagara,Karnataka,"Ramanagara, Karnataka, India","Ramanagara, Karnataka, India",12.720006,77.3184199,355.6021782,1588.181972,3053.821122
KA019,"Ibrahimpur, Vijayapura - KSPCB",Vijayapura,Karnataka,"Vijayapura, Karnataka, India","Vijayapura, Karnataka, India",16.814415,75.8933856,234.2030941,132.8619872,13261.92035
KA020,"Collector Office, Yadgir - KSPCB",Yadgir,Karnataka,"Yadgir, Karnataka, India","Yadgir, Karnataka, India",16.5744123,76.9254434,532.6497321,6505.130127,6256.899231
KL001,"Udyogamandal, Eloor - Kerala PCB",Eloor,Kerala,"Eloor, Kerala, India","Eloor, Paravur, Ernakulam, Kerala, 683501, India",10.0669964,76.2989276,3.140001216,247.6348804,174.3100586
KL002,"Kacheripady, Ernakulam - Kerala PCB",Ernakulam,Kerala,"Ernakulam, Kerala, India","Ernakulam, Kanayannur, Ernakulam, Kerala, 682035, India",9.9837257,76.2740001,5.637074003,98.59138764,341.5159771
KL003,"Thavakkara, Kannur - Kerala PCB",Kannur,Kerala,"Kannur, Kerala, India","Kannur, Kerala, India",11.8763836,75.3737973,6.408647183,509.0980966,901.8313837
KL004,"Vyttila, Kochi - Kerala PCB",Kochi,Kerala,"Kochi, Kerala, India","Kochi, Ernakulam, Kerala, 682001, India",9.9679032,76.2444378,3.875599888,86.87695356,329.6412733
KL005,"Polayathode, Kollam - Kerala PCB",Kollam,Kerala,"Kollam, Kerala, India","Kollam, Kerala, 691001, India",8.8870815,76.5907017,18.57306094,626.4115522,164.8053538
KL006,"Palayam, Kozhikode - Kerala PCB",Kozhikode,Kerala,"Kozhikode, Kerala, India","Kozhikode, Kerala, 673001, India",11.2450558,75.7754716,5.888814169,15.80414238,507.5939103
KL007,"Kariavattom, Thiruvananthapuram - Kerala PCB",Thiruvananthapuram,Kerala,"Thiruvananthapuram, Kerala, India","Thiruvananthapuram, Kerala, 695001, India",8.4882267,76.947551,3.583244013,409.0997333,438.1495477
KL008,"Plammoodu, Thiruvananthapuram - Kerala PCB",Thiruvananthapuram,Kerala,"Thiruvananthapuram, Kerala, India","Thiruvananthapuram, Kerala, 695001, India",8.4882267,76.947551,3.583244013,409.0997333,438.1495477
MP001,"T T Nagar, Bhopal - MPPCB",Bhopal,Madhya Pradesh,"Bhopal, Madhya Pradesh, India","Bhopal, Huzur Tahsil, Bhopal, Madhya Pradesh, 462001, India",23.2584857,77.401989,10.61626508,692.4194625,2267.916499
MP002,"Shrivastav Colony, Damoh - MPPCB",Damoh,Madhya Pradesh,"Damoh, Madhya Pradesh, India","Damoh, Madhya Pradesh, India",23.7981005,79.5419356,355.6827909,2090.60124,14712.98378
MP003,"Bhopal Chauraha, Dewas - MPPCB",Dewas,Madhya Pradesh,"Dewas, Madhya Pradesh, India","Dewas, Madhya Pradesh, India",22.8057498,76.2940408,385.05583,6906.81956,25178.91163
MP004,"City Center, Gwalior - MPPCB",Gwalior,Madhya Pradesh,"Gwalior, Madhya Pradesh, India","Gwalior, Gird Tahsil, Gwalior, Madhya Pradesh, 474001, India",26.2037247,78.1573628,17.3255942,1012.888398,3333.989439
MP005,"Phool Bagh, Gwalior - Mondelez Ind. Food",Gwalior,Madhya Pradesh,"Gwalior, Madhya Pradesh, India","Gwalior, Gird Tahsil, Gwalior, Madhya Pradesh, 474001, India",26.2037247,78.1573628,17.3255942,1012.888398,3333.989439
MP006,"Chhoti Gwaltoli, Indore - MPPCB",Indore,Madhya Pradesh,"Indore, Madhya Pradesh, India","Indore, Juni Indore Tahsil, Indore, Madhya Pradesh, 452001, India",22.7203616,75.8681996,26.78358718,2819.573748,440.2535137
MP007,"Marhatal, Jabalpur - MPPCB",Jabalpur,Madhya Pradesh,"Jabalpur, Madhya Pradesh, India","Jabalpur, Ranjhi Tahsil, Jabalpur, Madhya Pradesh, India",23.1701522,79.9324505,73.05324339,1000.154407,2440.174514
MP008,"Gole Bazar, Katni - MPPCB",Katni,Madhya Pradesh,"Katni, Madhya Pradesh, India","Katni, Madhya Pradesh, India",23.7176393,80.2610181,5000,15000,30000
MP009,"Sahilara, Maihar - KJS Cements",Maihar,Madhya Pradesh,"Maihar, Madhya Pradesh, India","Maihar, Maihar Tahsil, Maihar, Madhya Pradesh, India",24.260444,80.7592749,61.21046181,451.8222796,4044.574228
MP010,"Sector-D Industrial Area, Mandideep - MPPCB",Mandideep,Madhya Pradesh,"Mandideep, Madhya Pradesh, India","Mandideep, NH46, Mandideep, Goharganj Tahsil, Raisen, Madhya Pradesh, 462046, India",23.093838,77.5114296,74.53197349,7339.49939,643.5276199
MP011,"Sector-2 Industrial Area, Pithampur - MPPCB",Pithampur,Madhya Pradesh,"Pithampur, Madhya Pradesh, India","Pithampur, Pithampur Tahsil, Dhar, Madhya Pradesh, 454775, India",22.6105576,75.6790283,23.78762567,2865.420331,112.791916
MP012,"Shasthri Nagar, Ratlam - IPCA Lab",Ratlam,Madhya Pradesh,"Ratlam, Madhya Pradesh, India","Ratlam, Madhya Pradesh, India",23.50222,74.9551534,634.6575524,2563.574756,5980.165091
MP013,"Deen Dayal Nagar, Sagar - MPPCB",Sagar,Madhya Pradesh,"Sagar, Madhya Pradesh, India","Sagar, Madhya Pradesh, India",23.8083076,78.758254,38.05049015,1943.171154,8090.587176
MP014,"Bandhavgar Colony, Satna - Birla Cement",Satna,Madhya Pradesh,"Satna, Madhya Pradesh, India","Satna, Madhya Pradesh, India",24.6954445,80.7770348,166.0098012,11358.97191,9928.083298
MP015,"Vindhyachal STPS, Singrauli - MPPCB",Singrauli,Madhya Pradesh,"Singrauli, Madhya Pradesh, India","Singrauli, Madhya Pradesh, India",24.2431343,82.3827672,760.0220037,4439.246743,5053.478699
MP016,"Mahakaleshwar Temple, Ujjain - MPPCB",Ujjain,Madhya Pradesh,"Ujjain, Madhya Pradesh, India","Ujjain, Ujjain NagarTahsil, Ujjain, Madhya Pradesh, 456001, India",23.1885131,75.7716562,15.5822742,695.697303,1221.145471
MH001,"More Chowk Waluj, Aurangabad - MPCB",Aurangabad,Maharashtra,"Aurangabad, Maharashtra, India","Chhatrapati Sambhaji Nagar, Chhatrapati Sambhajinagar, Maharashtra, 431002, India",19.877263,75.3390241,24.53105784,2389.397101,1130.426074
MH002,"Chandrapur, Chandrapur - MPCB",Chandrapur,Maharashtra,"Chandrapur, Maharashtra, India","Chandrapur, Maharashtra, India",20.0967555,79.5045475,252.1580283,5540.193528,11317.137
MH003,"MIDC Khutala, Chandrapur - MPCB",Chandrapur,Maharashtra,"Chandrapur, Maharashtra, India","Chandrapur, Maharashtra, India",20.0967555,79.5045475,252.1580283,5540.193528,11317.137
MH004,"Khadakpada, Kalyan - MPCB",Kalyan,Maharashtra,"Kalyan, Maharashtra, India","Kalyan, Kalyan-Dombivli, Kalyan Taluka, Thane, Maharashtra, India",19.2396742,73.1366482,15.62278858,741.0604904,757.8111657
MH005,"Bandra, Mumbai - MPCB",Mumbai,Maharashtra,"Mumbai, Maharashtra, India","Mumbai Suburban, Maharashtra, India",19.054999,72.8692035,24.99410873,140.0311195,54.06164059
MH006,"Borivali East, Mumbai - MPCB",Mumbai,Maharashtra,"Mumbai, Maharashtra, India","Mumbai Suburban, Maharashtra, India",19.054999,72.8692035,24.99410873,140.0311195,54.06164059
MH007,"Chhatrapati Shivaji Intl. Airport (T2), Mumbai - MPCB",Mumbai,Maharashtra,"Mumbai, Maharashtra, India","Mumbai Suburban, Maharashtra, India",19.054999,72.8692035,24.99410873,140.0311195,54.06164059
MH008,"Colaba, Mumbai - MPCB",Mumbai,Maharashtra,"Mumbai, Maharashtra, India","Mumbai Suburban, Maharashtra, India",19.054999,72.8692035,24.99410873,140.0311195,54.06164059
MH009,"Kurla, Mumbai - MPCB",Mumbai,Maharashtra,"Mumbai, Maharashtra, India","Mumbai Suburban, Maharashtra, India",19.054999,72.8692035,24.99410873,140.0311195,54.06164059
MH010,"Powai, Mumbai - MPCB",Mumbai,Maharashtra,"Mumbai, Maharashtra, India","Mumbai Suburban, Maharashtra, India",19.054999,72.8692035,24.99410873,140.0311195,54.06164059
MH011,"Sion, Mumbai - MPCB",Mumbai,Maharashtra,"Mumbai, Maharashtra, India","Mumbai Suburban, Maharashtra, India",19.054999,72.8692035,24.99410873,140.0311195,54.06164059
MH012,"Vasai West, Mumbai - MPCB",Mumbai,Maharashtra,"Mumbai, Maharashtra, India","Mumbai Suburban, Maharashtra, India",19.054999,72.8692035,24.99410873,140.0311195,54.06164059
MH013,"Vile Parle West, Mumbai - MPCB",Mumbai,Maharashtra,"Mumbai, Maharashtra, India","Mumbai Suburban, Maharashtra, India",19.054999,72.8692035,24.99410873,140.0311195,54.06164059
MH014,"Worli, Mumbai - MPCB",Mumbai,Maharashtra,"Mumbai, Maharashtra, India","Mumbai Suburban, Maharashtra, India",19.054999,72.8692035,24.99410873,140.0311195,54.06164059
MH015,"Opp GPO Civil Lines, Nagpur - MPCB",Nagpur,Maharashtra,"Nagpur, Maharashtra, India","Nagpur City, Nagpur Urban Taluka, Nagpur, Maharashtra, India",21.1498134,79.0820556,126.3796012,1108.742943,1034.914117
MH016,"Gangapur Road, Nashik - MPCB",Nashik,Maharashtra,"Nashik, Maharashtra, India","Nashik, Nashik Taluka, Nashik, Maharashtra, 422001, India",20.0112475,73.7902364,43.65055528,146.2166096,1829.81407
MH017,"Airoli, Navi Mumbai - MPCB",Navi Mumbai,Maharashtra,"Navi Mumbai, Maharashtra, India","Navi Mumbai, Thane Taluka, Thane, Maharashtra, India",19.0308262,73.0198537,79.80909923,107.3842797,1528.853519
MH018,"Mahape, Navi Mumbai - MPCB",Navi Mumbai,Maharashtra,"Navi Mumbai, Maharashtra, India","Navi Mumbai, Thane Taluka, Thane, Maharashtra, India",19.0308262,73.0198537,79.80909923,107.3842797,1528.853519
MH019,"Nerul, Navi Mumbai - MPCB",Navi Mumbai,Maharashtra,"Navi Mumbai, Maharashtra, India","Navi Mumbai, Thane Taluka, Thane, Maharashtra, India",19.0308262,73.0198537,79.80909923,107.3842797,1528.853519
MH020,"Karve Road, Pune - MPCB",Pune,Maharashtra,"Pune, Maharashtra, India","Pune City, Pune, Maharashtra, India",18.5213738,73.8545071,26.2107634,50.99718701,1434.884236
MH021,"Solapur, Solapur - MPCB",Solapur,Maharashtra,"Solapur, Maharashtra, India","Solapur, Maharashtra, India",17.8499067,75.2763203,38.84725307,44.77270247,4450.03225
MH022,"Pimpleshwar Mandir, Thane - MPCB",Thane,Maharashtra,"Thane, Maharashtra, India","Thane, Thane Taluka, Thane, Maharashtra, India",19.1943294,72.9701779,32.09316939,238.8024223,782.0462486
ML001,"Lumpyngngad, Shillong - Meghalaya PCB",Shillong,Meghalaya,"Shillong, Meghalaya, India","Shillong, Police Bazar Road, Mawkhar, Shillong, Mylliem, East Khasi Hills, Meghalaya, 793001, India",25.5760446,91.8825282,8.284922786,309.2618686,3714.41739
MZ001,"Sikulpuikawn, Aizawl - Mizoram PCB",Aizawl,Mizoram,"Aizawl, Mizoram, India","Aizawl, Tlangnuam, Aizawl, Mizoram, 796190, India",23.7433532,92.7382756,5000,15000,30000
OD001,"GM Office, Brajrajnagar - OSPCB",Brajrajnagar,Odisha,"Brajrajnagar, Odisha, India","Community Health Centre, Brajrajnagar, Bilaspur - Kharagpur Highway, Orient, Jharsuguda, Odisha, 768216, India",21.8498594,83.9254698,47.05787339,2133.022908,4027.79252
OD002,"Talcher Coalfields,Talcher - OSPCB",Talcher,Odisha,"Talcher, Odisha, India","Talcher, Angul - Talcher Road, Talcher, Colliery, Angul, Odisha, 759100, India",20.9322302,85.2005822,42.63835557,955.1046866,1937.460011
PB001,"Golden Temple, Amritsar - PPCB",Amritsar,Punjab,"Amritsar, Punjab, India","Amritsar, Amritsar I Tahsil, Amritsar, Punjab, 143001, India",31.6356659,74.8787496,4.785131947,1407.103518,1534.864969
PB002,"Hardev Nagar, Bathinda - PPCB",Bathinda,Punjab,"Bathinda, Punjab, India","Bathinda, Punjab, India",30.1794813,75.0471098,957.8690167,1061.64374,5775.710935
PB003,"Civil Line, Jalandhar - PPCB",Jalandhar,Punjab,"Jalandhar, Punjab, India","Jalandhar, Punjab, India",31.2922311,75.5678878,33.5235663,3154.252865,1424.320528
PB004,"Kalal Majra, Khanna - PPCB",Khanna,Punjab,"Khanna, Punjab, India","Khanna, Khanna Tahsil, Ludhiana, Punjab, 141401, India",30.700625,76.2220763,14.3404952,334.801252,1652.193687
PB005,"Punjab Agricultural University, Ludhiana - PPCB",Ludhiana,Punjab,"Ludhiana, Punjab, India","Ludhiana, Ludhiana (West) Tahsil, Ludhiana, Punjab, 141001, India",30.9090157,75.851601,3.827347841,7330.917073,1388.427352
PB006,"RIMT University, Mandi Gobindgarh - PPCB",Gobindgarh,Punjab,"Gobindgarh, Punjab, India","Gobindgarh, Ludhiana (East) Tahsil, Ludhiana, Punjab, 141017, India",30.8613538,75.9461613,17.37770947,3555.325422,624.1842786
PB007,"Model Town, Patiala - PPCB",Patiala,Punjab,"Patiala, Punjab, India","Patiala, Punjab, India",30.2092777,76.3397231,222.5518324,2066.728092,5549.858879
PB008,"Ratanpura, Rupnagar - Ambuja Cements",Rupnagar,Punjab,"Rupnagar, Punjab, India","Rupnagar, Punjab, India",31.0917102,76.5289701,547.7571838,3902.293712,5624.392291
RJ001,"Moti Doongri, Alwar - RSPCB",Alwar,Rajasthan,"Alwar, Rajasthan, India","Alwar, Rajasthan, India",27.4140048,76.6170387,91.08718906,9570.171671,12377.83557
RJ002,"Civil Lines, Ajmer - RSPCB",Ajmer,Rajasthan,"Ajmer, Rajasthan, India","Ajmer, Ajmer Tehsil, Ajmer, Rajasthan, India",26.4691,74.639,25.83257948,772.5191456,2341.497094
RJ004,"Adarsh Nagar, Jaipur - RSPCB",Jaipur,Rajasthan,"Jaipur, Rajasthan, India","Jaipur, Jaipur Municipal Corporation, Jaipur Tehsil, Jaipur, Rajasthan, 302001, India",26.9154576,75.8189817,93.26117101,1703.85695,2804.514687
RJ005,"Police Commissionerate, Jaipur - RSPCB",Jaipur,Rajasthan,"Jaipur, Rajasthan, India","Jaipur, Jaipur Municipal Corporation, Jaipur Tehsil, Jaipur, Rajasthan, 302001, India",26.9154576,75.8189817,93.26117101,1703.85695,2804.514687
RJ006,"Shastri Nagar, Jaipur - RSPCB",Jaipur,Rajasthan,"Jaipur, Rajasthan, India","Jaipur, Jaipur Municipal Corporation, Jaipur Tehsil, Jaipur, Rajasthan, 302001, India",26.9154576,75.8189817,52.87704716,393.2102774,2124.641152
RJ007,"Collectorate, Jodhpur - RSPCB",Jodhpur,Rajasthan,"Jodhpur, Rajasthan, India","Jodhpur, Jodhpur Tehsil, Jodhpur, Rajasthan, India",26.2967719,73.0351433,1.958666581,44.3000297,485.2279881
RJ008,"Shrinath Puram, Kota - RSPCB",Kota,Rajasthan,"Kota, Rajasthan, India","Kota, Ladpura Tehsil, Kota, Rajasthan, 324001, India",25.1737019,75.8574194,5000,15000,30000
RJ009,"Indira Colony Vistar, Pali - RSPCB",Pali,Rajasthan,"Pali, Rajasthan, India","Pali, Rajasthan, India",25.455221,73.419389,14.91635848,432.6975664,2788.012924
RJ010,"Ashok Nagar, Udaipur - RSPCB",Udaipur,Rajasthan,"Udaipur, Rajasthan, India","Udaipur, Girwa Tehsil, Udaipur, Rajasthan, 313001, India",24.578721,73.6862571,28.31805598,418.4430175,405.7078977
TN001,"Alandur Bus Depot, Chennai - CPCB",Chennai,Tamil Nadu,"Chennai, Tamil Nadu, India","Chennai, Tamil Nadu, 600001, India",13.0836939,80.270186,28.31805598,418.4430175,405.7078977
TN002,"Manali Village, Chennai - TNPCB",Chennai,Tamil Nadu,"Chennai, Tamil Nadu, India","Chennai, Tamil Nadu, 600001, India",13.0836939,80.270186,28.31805598,418.4430175,405.7078977
TN003,"Manali, Chennai - CPCB",Chennai,Tamil Nadu,"Chennai, Tamil Nadu, India","Chennai, Tamil Nadu, 600001, India",13.0836939,80.270186,28.31805598,418.4430175,405.7078977
TN004,"Velachery Res. Area, Chennai - CPCB",Chennai,Tamil Nadu,"Chennai, Tamil Nadu, India","Chennai, Tamil Nadu, 600001, India",13.0836939,80.270186,16.09012324,1148.198938,0
TN005,"SIDCO Kurichi, Coimbatore - TNPCB",Coimbatore,Tamil Nadu,"Coimbatore, Tamil Nadu, India","Coimbatore, Coimbatore North, Coimbatore, Tamil Nadu, 641001, India",11.0018115,76.9628425,35.98229969,313.9876688,1408.903604
TG001,"Bollaram Industrial Area, Hyderabad - TSPCB",Hyderabad,Telangana,"Hyderabad, Telangana, India","Hyderabad, Bahadurpura mandal, Hyderabad, Telangana, India",17.360589,78.4740613,35.98229969,313.9876688,1408.903604
TG002,"Central University, Hyderabad - TSPCB",Hyderabad,Telangana,"Hyderabad, Telangana, India","Hyderabad, Bahadurpura mandal, Hyderabad, Telangana, India",17.360589,78.4740613,35.98229969,313.9876688,1408.903604
TG003,"ICRISAT Patancheru, Hyderabad - TSPCB",Hyderabad,Telangana,"Hyderabad, Telangana, India","Hyderabad, Bahadurpura mandal, Hyderabad, Telangana, India",17.360589,78.4740613,35.98229969,313.9876688,1408.903604
TG004,"IDA Pashamylaram, Hyderabad - TSPCB",Hyderabad,Telangana,"Hyderabad, Telangana, India","Hyderabad, Bahadurpura mandal, Hyderabad, Telangana, India",17.360589,78.4740613,35.98229969,313.9876688,1408.903604
TG005,"Sanathnagar, Hyderabad - TSPCB",Hyderabad,Telangana,"Hyderabad, Telangana, India","Hyderabad, Bahadurpura mandal, Hyderabad, Telangana, India",17.360589,78.4740613,35.98229969,313.9876688,1408.903604
TG006,"Zoo Park, Hyderabad - TSPCB",Hyderabad,Telangana,"Hyderabad, Telangana, India","Hyderabad, Bahadurpura mandal, Hyderabad, Telangana, India",17.360589,78.4740613,54.17038481,1537.400502,1419.286779
UP001,"Sanjay Palace, Agra - UPPCB",Agra,Uttar Pradesh,"Agra, Uttar Pradesh, India","Agra, Uttar Pradesh, India",27.1752554,78.0098161,172.094145,9850.284673,10041.41811
UP002,"New Collectorate, Baghpat - UPPCB",Baghpat,Uttar Pradesh,"Baghpat, Uttar Pradesh, India","Baghpat, Uttar Pradesh, India",29.0374779,77.3062737,132.5443662,15093.16706,10470.38094
UP003,"Yamunapuram, Bulandshahr - UPPCB",Bulandshahr,Uttar Pradesh,"Bulandshahr, Uttar Pradesh, India","Bulandshahr, Uttar Pradesh, India",28.3874073,77.9743805,38.91005325,848.2565731,1644.045441
UP004,"Indirapuram, Ghaziabad - UPPCB",Ghaziabad,Uttar Pradesh,"Ghaziabad, Uttar Pradesh, India","Ghaziabad, Uttar Pradesh, India",28.7749966,77.4586967,38.91005325,848.2565731,1644.045441
UP005,"Loni, Ghaziabad - UPPCB",Ghaziabad,Uttar Pradesh,"Ghaziabad, Uttar Pradesh, India","Ghaziabad, Uttar Pradesh, India",28.7749966,77.4586967,38.91005325,848.2565731,1644.045441
UP006,"Sanjay Nagar, Ghaziabad - UPPCB",Ghaziabad,Uttar Pradesh,"Ghaziabad, Uttar Pradesh, India","Ghaziabad, Uttar Pradesh, India",28.7749966,77.4586967,38.91005325,848.2565731,1644.045441
UP007,"Vasundhara, Ghaziabad - UPPCB",Ghaziabad,Uttar Pradesh,"Ghaziabad, Uttar Pradesh, India","Ghaziabad, Uttar Pradesh, India",28.7749966,77.4586967,314.2425559,78.35720947,1419.795016
UP008,"Knowledge Park - III, Greater Noida - UPPCB",Greater Noida,Uttar Pradesh,"Greater Noida, Uttar Pradesh, India","Greater Noida, Gautam Buddha Nagar, Uttar Pradesh, 201310, India",28.4670734,77.5137649,314.2425559,78.35720947,1419.795016
UP009,"Knowledge Park - V, Greater Noida - UPPCB",Greater Noida,Uttar Pradesh,"Greater Noida, Uttar Pradesh, India","Greater Noida, Gautam Buddha Nagar, Uttar Pradesh, 201310, India",28.4670734,77.5137649,50.60008798,49.19394588,6799.08469
UP010,"Anand Vihar, Hapur - UPPCB",Hapur,Uttar Pradesh,"Hapur, Uttar Pradesh, India","Hapur, Uttar Pradesh, India",28.7166767,77.890433,145.8757985,1770.873016,0
UP011,"Nehru Nagar, Kanpur - UPPCB",Kanpur,Uttar Pradesh,"Kanpur, Uttar Pradesh, India","Kanpur, Kanpur Nagar, Uttar Pradesh, India",26.4609135,80.3217588,3.883282686,2479.208666,1197.136307
UP012,"Central School, Lucknow - CPCB",Lucknow,Uttar Pradesh,"Lucknow, Uttar Pradesh, India","Lucknow, Uttar Pradesh, 226027, India",26.8381,80.9346001,3.883282686,2479.208666,1197.136307
UP013,"Gomti Nagar, Lucknow - UPPCB",Lucknow,Uttar Pradesh,"Lucknow, Uttar Pradesh, India","Lucknow, Uttar Pradesh, 226027, India",26.8381,80.9346001,3.883282686,2479.208666,1197.136307
UP014,"Lalbagh, Lucknow - CPCB",Lucknow,Uttar Pradesh,"Lucknow, Uttar Pradesh, India","Lucknow, Uttar Pradesh, 226027, India",26.8381,80.9346001,3.883282686,2479.208666,1197.136307
UP015,"Nishant Ganj, Lucknow - UPPCB",Lucknow,Uttar Pradesh,"Lucknow, Uttar Pradesh, India","Lucknow, Uttar Pradesh, 226027, India",26.8381,80.9346001,3.883282686,2479.208666,1197.136307
UP016,"Talkatora District Industries Center, Lucknow - CPCB",Lucknow,Uttar Pradesh,"Lucknow, Uttar Pradesh, India","Lucknow, Uttar Pradesh, 226027, India",26.8381,80.9346001,37.85743946,8230.770056,2331.765602
UP017,"Ganga Nagar, Meerut - UPPCB",Meerut,Uttar Pradesh,"Meerut, Uttar Pradesh, India","Meerut, Uttar Pradesh, India",29.0018557,77.7679671,37.85743946,8230.770056,2331.765602
UP018,"Jai Bhim Nagar, Meerut - UPPCB",Meerut,Uttar Pradesh,"Meerut, Uttar Pradesh, India","Meerut, Uttar Pradesh, India",29.0018557,77.7679671,37.85743946,8230.770056,2331.765602
UP019,"Pallavpuram Phase 2, Meerut - UPPCB",Meerut,Uttar Pradesh,"Meerut, Uttar Pradesh, India","Meerut, Uttar Pradesh, India",29.0018557,77.7679671,60.42102027,3680.39645,4122.168124
UP020,"Lajpat Nagar, Moradabad - UPPCB",Moradabad,Uttar Pradesh,"Moradabad, Uttar Pradesh, India","Moradabad, Uttar Pradesh, India",28.8796553,78.8095335,40.06047565,2101.820367,1281.094048
UP022,"Sector - 125, Noida - UPPCB",Noida,Uttar Pradesh,"Noida, Uttar Pradesh, India","Noida, Dadri, Gautam Buddha Nagar, Uttar Pradesh, India",28.5706333,77.3272147,40.06047565,2101.820367,1281.094048
UP023,"Sector - 62, Noida - IMD",Noida,Uttar Pradesh,"Noida, Uttar Pradesh, India","Noida, Dadri, Gautam Buddha Nagar, Uttar Pradesh, India",28.5706333,77.3272147,40.06047565,2101.820367,1281.094048
UP024,"Sector-1, Noida - UPPCB",Noida,Uttar Pradesh,"Noida, Uttar Pradesh, India","Noida, Dadri, Gautam Buddha Nagar, Uttar Pradesh, India",28.5706333,77.3272147,84.61508362,356.6716359,2377.825682
UP025,"Sector-116, Noida - UPPCB",Noida,Uttar Pradesh,"Noida, Uttar Pradesh, India","Noida, Dadri, Gautam Buddha Nagar, Uttar Pradesh, India",28.5706333,77.3272147,126.8375859,604.2689669,3757.352297
UP026,"Ardhali Bazar, Varanasi - UPPCB",Varanasi,Uttar Pradesh,"Varanasi, Uttar Pradesh, India","Varanasi, Sadar, Varanasi, Uttar Pradesh, 221001, India",25.3356491,83.0076292,25.91589199,454.4259344,2478.500861
WB001,"Asansol Court Area, Asansol - WBPCB",Asansol,West Bengal,"Asansol, West Bengal, India","Asansol, Asansol Kulti Township, Paschim Bardhaman, West Bengal, India",23.6871297,86.9746587,2.229527622,181.3749224,1450.619663
WB002,"Sidhu Kanhu Indoor Stadium, Durgapur - WBPCB",Durgapur,West Bengal,"Durgapur, West Bengal, India","Durgapur, Faridpur Durgapur, Paschim Bardhaman, West Bengal, 713200, India",23.5350475,87.3380425,41.50262967,352.0422739,820.5533024
WB003,"Haldia, Haldia - WBPCB",Haldia,West Bengal,"Haldia, West Bengal, India","Haldia, Purba Medinipur, West Bengal, 721604, India",22.028124,88.0632655,41.50262967,352.0422739,820.5533024
WB004,"Belur Math, Howrah - WBPCB",Howrah,West Bengal,"Howrah, West Bengal, India","Haora, Howrah, West Bengal, India",22.5736296,88.3251045,41.50262967,352.0422739,820.5533024
WB005,"Ghusuri, Howrah - WBPCB",Howrah,West Bengal,"Howrah, West Bengal, India","Haora, Howrah, West Bengal, India",22.5736296,88.3251045,29.15843698,183.1861024,1276.675262
WB006,"Padmapukur, Howrah - WBPCB",Howrah,West Bengal,"Howrah, West Bengal, India","Haora, Howrah, West Bengal, India",22.5736296,88.3251045,29.15843698,183.1861024,1276.675262
WB007,"Ballygunge, Kolkata - WBPCB",Kolkata,West Bengal,"Kolkata, West Bengal, India","Kolkata, West Bengal, India",22.5726459,88.3638953,29.15843698,183.1861024,1276.675262
WB008,"Bidhannagar, Kolkata - WBPCB",Kolkata,West Bengal,"Kolkata, West Bengal, India","Kolkata, West Bengal, India",22.5726459,88.3638953,29.15843698,183.1861024,1276.675262
WB009,"Fort William, Kolkata - WBPCB",Kolkata,West Bengal,"Kolkata, West Bengal, India","Kolkata, West Bengal, India",22.5726459,88.3638953,29.15843698,183.1861024,1276.675262
WB010,"Jadavpur, Kolkata - WBPCB",Kolkata,West Bengal,"Kolkata, West Bengal, India","Kolkata, West Bengal, India",22.5726459,88.3638953,29.15843698,183.1861024,1276.675262
WB011,"Rabindra Bharati University, Kolkata - WBPCB",Kolkata,West Bengal,"Kolkata, West Bengal, India","Kolkata, West Bengal, India",22.5726459,88.3638953,29.15843698,183.1861024,1276.675262
WB012,"Rabindra Sarobar, Kolkata - WBPCB",Kolkata,West Bengal,"Kolkata, West Bengal, India","Kolkata, West Bengal, India",22.5726459,88.3638953,20.52246527,1039.725991,1129.355244
WB013,"Victoria, Kolkata - WBPCB",Kolkata,West Bengal,"Kolkata, West Bengal, India","Kolkata, West Bengal, India",22.5726459,88.3638953,5000,15000,30000
WB014,"Ward-32 Bapupara, Siliguri - WBPCB",Siliguri,West Bengal,"Siliguri, West Bengal, India","Siliguri, Siliguri Subdivsion, Darjeeling, West Bengal, India",26.7164127,88.4309916,5000,15000,30000
,,,,,,,,93.26117101,1703.85695,2804.514687
,,,,,,,,40.06047565,2101.820367,1281.094048
